<?xml version="1.0" encoding="UTF-8"?>
<gpx version="1.1" creator="DownloadGPX" xmlns="http://www.topografix.com/GPX/1/1" xmlns:xsi="http://www.w3.org/2001/XMLSchema-instance" xsi:schemaLocation="http://www.topografix.com/GPX/1/1 http://www.topografix.com/GPX/1/1/gpx.xsd">
  <metadata>
    <name>PortRun Half Marathon</name>
    <time>2026-03-30T02:33:35.783Z</time>
  </metadata>
  <trk>
    <name>PortRun Half Marathon</name>
    <trkseg>
      <trkpt lat="42.80225" lon="-70.88078">
        <ele>0</ele>
        <time>2026-03-30T02:33:35.783Z</time>
      </trkpt>
      <trkpt lat="42.80035" lon="-70.88098">
        <ele>0</ele>
        <time>2026-03-30T02:33:36.783Z</time>
      </trkpt>
      <trkpt lat="42.80068" lon="-70.88647">
        <ele>0</ele>
        <time>2026-03-30T02:33:37.783Z</time>
      </trkpt>
      <trkpt lat="42.79904" lon="-70.89223">
        <ele>0</ele>
        <time>2026-03-30T02:33:38.783Z</time>
      </trkpt>
      <trkpt lat="42.79681" lon="-70.89097">
        <ele>0</ele>
        <time>2026-03-30T02:33:39.783Z</time>
      </trkpt>
      <trkpt lat="42.79576" lon="-70.88946">
        <ele>0</ele>
        <time>2026-03-30T02:33:40.783Z</time>
      </trkpt>
      <trkpt lat="42.79252" lon="-70.89204">
        <ele>0</ele>
        <time>2026-03-30T02:33:41.783Z</time>
      </trkpt>
      <trkpt lat="42.79065" lon="-70.90209">
        <ele>0</ele>
        <time>2026-03-30T02:33:42.783Z</time>
      </trkpt>
      <trkpt lat="42.78861" lon="-70.90822">
        <ele>0</ele>
        <time>2026-03-30T02:33:43.783Z</time>
      </trkpt>
      <trkpt lat="42.78792" lon="-70.91477">
        <ele>0</ele>
        <time>2026-03-30T02:33:44.783Z</time>
      </trkpt>
      <trkpt lat="42.78711" lon="-70.91606">
        <ele>0</ele>
        <time>2026-03-30T02:33:45.783Z</time>
      </trkpt>
      <trkpt lat="42.78394" lon="-70.91888">
        <ele>0</ele>
        <time>2026-03-30T02:33:46.783Z</time>
      </trkpt>
      <trkpt lat="42.78082" lon="-70.92387">
        <ele>0</ele>
        <time>2026-03-30T02:33:47.783Z</time>
      </trkpt>
      <trkpt lat="42.77868" lon="-70.93387">
        <ele>0</ele>
        <time>2026-03-30T02:33:48.783Z</time>
      </trkpt>
      <trkpt lat="42.77595" lon="-70.94032">
        <ele>0</ele>
        <time>2026-03-30T02:33:49.783Z</time>
      </trkpt>
      <trkpt lat="42.7689" lon="-70.95186">
        <ele>0</ele>
        <time>2026-03-30T02:33:50.783Z</time>
      </trkpt>
      <trkpt lat="42.76902" lon="-70.95275">
        <ele>0</ele>
        <time>2026-03-30T02:33:51.783Z</time>
      </trkpt>
      <trkpt lat="42.7738" lon="-70.96016">
        <ele>0</ele>
        <time>2026-03-30T02:33:52.783Z</time>
      </trkpt>
      <trkpt lat="42.77421" lon="-70.95795">
        <ele>0</ele>
        <time>2026-03-30T02:33:53.783Z</time>
      </trkpt>
      <trkpt lat="42.77595" lon="-70.95513">
        <ele>0</ele>
        <time>2026-03-30T02:33:54.783Z</time>
      </trkpt>
      <trkpt lat="42.77799" lon="-70.95819">
        <ele>0</ele>
        <time>2026-03-30T02:33:55.783Z</time>
      </trkpt>
      <trkpt lat="42.77923" lon="-70.95845">
        <ele>0</ele>
        <time>2026-03-30T02:33:56.783Z</time>
      </trkpt>
      <trkpt lat="42.78106" lon="-70.95714">
        <ele>0</ele>
        <time>2026-03-30T02:33:57.783Z</time>
      </trkpt>
      <trkpt lat="42.78223" lon="-70.95501">
        <ele>0</ele>
        <time>2026-03-30T02:33:58.783Z</time>
      </trkpt>
      <trkpt lat="42.78331" lon="-70.9547">
        <ele>0</ele>
        <time>2026-03-30T02:33:59.783Z</time>
      </trkpt>
      <trkpt lat="42.78415" lon="-70.95536">
        <ele>0</ele>
        <time>2026-03-30T02:34:00.783Z</time>
      </trkpt>
      <trkpt lat="42.78588" lon="-70.95859">
        <ele>0</ele>
        <time>2026-03-30T02:34:01.783Z</time>
      </trkpt>
      <trkpt lat="42.78695" lon="-70.95627">
        <ele>0</ele>
        <time>2026-03-30T02:34:02.783Z</time>
      </trkpt>
      <trkpt lat="42.78852" lon="-70.95101">
        <ele>0</ele>
        <time>2026-03-30T02:34:03.783Z</time>
      </trkpt>
      <trkpt lat="42.78796" lon="-70.94917">
        <ele>0</ele>
        <time>2026-03-30T02:34:04.783Z</time>
      </trkpt>
      <trkpt lat="42.79085" lon="-70.94722">
        <ele>0</ele>
        <time>2026-03-30T02:34:05.783Z</time>
      </trkpt>
      <trkpt lat="42.79284" lon="-70.9451">
        <ele>0</ele>
        <time>2026-03-30T02:34:06.783Z</time>
      </trkpt>
      <trkpt lat="42.79531" lon="-70.9439">
        <ele>0</ele>
        <time>2026-03-30T02:34:07.783Z</time>
      </trkpt>
      <trkpt lat="42.79439" lon="-70.93934">
        <ele>0</ele>
        <time>2026-03-30T02:34:08.783Z</time>
      </trkpt>
      <trkpt lat="42.79495" lon="-70.93612">
        <ele>0</ele>
        <time>2026-03-30T02:34:09.783Z</time>
      </trkpt>
      <trkpt lat="42.79414" lon="-70.93186">
        <ele>0</ele>
        <time>2026-03-30T02:34:10.783Z</time>
      </trkpt>
      <trkpt lat="42.7944" lon="-70.92944">
        <ele>0</ele>
        <time>2026-03-30T02:34:11.783Z</time>
      </trkpt>
      <trkpt lat="42.79267" lon="-70.92743">
        <ele>0</ele>
        <time>2026-03-30T02:34:12.783Z</time>
      </trkpt>
      <trkpt lat="42.78738" lon="-70.93481">
        <ele>0</ele>
        <time>2026-03-30T02:34:13.783Z</time>
      </trkpt>
      <trkpt lat="42.78589" lon="-70.93477">
        <ele>0</ele>
        <time>2026-03-30T02:34:14.783Z</time>
      </trkpt>
      <trkpt lat="42.78387" lon="-70.93392">
        <ele>0</ele>
        <time>2026-03-30T02:34:15.783Z</time>
      </trkpt>
      <trkpt lat="42.7833" lon="-70.93158">
        <ele>0</ele>
        <time>2026-03-30T02:34:16.783Z</time>
      </trkpt>
      <trkpt lat="42.78164" lon="-70.92859">
        <ele>0</ele>
        <time>2026-03-30T02:34:17.783Z</time>
      </trkpt>
      <trkpt lat="42.78099" lon="-70.92864">
        <ele>0</ele>
        <time>2026-03-30T02:34:18.783Z</time>
      </trkpt>
      <trkpt lat="42.77962" lon="-70.93008">
        <ele>0</ele>
        <time>2026-03-30T02:34:19.783Z</time>
      </trkpt>
      <trkpt lat="42.78082" lon="-70.92387">
        <ele>0</ele>
        <time>2026-03-30T02:34:20.783Z</time>
      </trkpt>
      <trkpt lat="42.78394" lon="-70.91888">
        <ele>0</ele>
        <time>2026-03-30T02:34:21.783Z</time>
      </trkpt>
      <trkpt lat="42.78711" lon="-70.91606">
        <ele>0</ele>
        <time>2026-03-30T02:34:22.783Z</time>
      </trkpt>
      <trkpt lat="42.78802" lon="-70.9145">
        <ele>0</ele>
        <time>2026-03-30T02:34:23.783Z</time>
      </trkpt>
      <trkpt lat="42.78861" lon="-70.90822">
        <ele>0</ele>
        <time>2026-03-30T02:34:24.783Z</time>
      </trkpt>
      <trkpt lat="42.79065" lon="-70.90209">
        <ele>0</ele>
        <time>2026-03-30T02:34:25.783Z</time>
      </trkpt>
      <trkpt lat="42.79252" lon="-70.89204">
        <ele>0</ele>
        <time>2026-03-30T02:34:26.783Z</time>
      </trkpt>
      <trkpt lat="42.79294" lon="-70.89137">
        <ele>0</ele>
        <time>2026-03-30T02:34:27.783Z</time>
      </trkpt>
      <trkpt lat="42.79512" lon="-70.89014">
        <ele>0</ele>
        <time>2026-03-30T02:34:28.783Z</time>
      </trkpt>
      <trkpt lat="42.79714" lon="-70.88754">
        <ele>0</ele>
        <time>2026-03-30T02:34:29.783Z</time>
      </trkpt>
      <trkpt lat="42.80065" lon="-70.88476">
        <ele>0</ele>
        <time>2026-03-30T02:34:30.783Z</time>
      </trkpt>
      <trkpt lat="42.80035" lon="-70.88098">
        <ele>0</ele>
        <time>2026-03-30T02:34:31.783Z</time>
      </trkpt>
      <trkpt lat="42.80217" lon="-70.88081">
        <ele>0</ele>
        <time>2026-03-30T02:34:32.783Z</time>
      </trkpt>
    </trkseg>
  </trk>
</gpx>