<?xml version="1.0" encoding="UTF-8"?>
<gpx version="1.1" creator="DownloadGPX" xmlns="http://www.topografix.com/GPX/1/1" xmlns:xsi="http://www.w3.org/2001/XMLSchema-instance" xsi:schemaLocation="http://www.topografix.com/GPX/1/1 http://www.topografix.com/GPX/1/1/gpx.xsd">
  <metadata>
    <name>Fool's Dual Half Marathon</name>
    <time>2026-03-29T12:55:02.274Z</time>
  </metadata>
  <trk>
    <name>Fool's Dual Half Marathon</name>
    <trkseg>
      <trkpt lat="42.62718" lon="-70.67322">
        <ele>0</ele>
        <time>2026-03-29T12:55:02.274Z</time>
      </trkpt>
      <trkpt lat="42.62686" lon="-70.67358">
        <ele>0</ele>
        <time>2026-03-29T12:55:03.274Z</time>
      </trkpt>
      <trkpt lat="42.62697" lon="-70.67577">
        <ele>0</ele>
        <time>2026-03-29T12:55:04.274Z</time>
      </trkpt>
      <trkpt lat="42.62773" lon="-70.67774">
        <ele>0</ele>
        <time>2026-03-29T12:55:05.274Z</time>
      </trkpt>
      <trkpt lat="42.62877" lon="-70.67797">
        <ele>0</ele>
        <time>2026-03-29T12:55:06.274Z</time>
      </trkpt>
      <trkpt lat="42.62906" lon="-70.6794">
        <ele>0</ele>
        <time>2026-03-29T12:55:07.274Z</time>
      </trkpt>
      <trkpt lat="42.63224" lon="-70.67846">
        <ele>0</ele>
        <time>2026-03-29T12:55:08.274Z</time>
      </trkpt>
      <trkpt lat="42.63294" lon="-70.67644">
        <ele>0</ele>
        <time>2026-03-29T12:55:09.274Z</time>
      </trkpt>
      <trkpt lat="42.63391" lon="-70.6755">
        <ele>0</ele>
        <time>2026-03-29T12:55:10.274Z</time>
      </trkpt>
      <trkpt lat="42.64014" lon="-70.67255">
        <ele>0</ele>
        <time>2026-03-29T12:55:11.274Z</time>
      </trkpt>
      <trkpt lat="42.64211" lon="-70.67085">
        <ele>0</ele>
        <time>2026-03-29T12:55:12.274Z</time>
      </trkpt>
      <trkpt lat="42.64694" lon="-70.67362">
        <ele>0</ele>
        <time>2026-03-29T12:55:13.274Z</time>
      </trkpt>
      <trkpt lat="42.64808" lon="-70.67358">
        <ele>0</ele>
        <time>2026-03-29T12:55:14.274Z</time>
      </trkpt>
      <trkpt lat="42.65141" lon="-70.6722">
        <ele>0</ele>
        <time>2026-03-29T12:55:15.274Z</time>
      </trkpt>
      <trkpt lat="42.65362" lon="-70.67394">
        <ele>0</ele>
        <time>2026-03-29T12:55:16.274Z</time>
      </trkpt>
      <trkpt lat="42.65484" lon="-70.67394">
        <ele>0</ele>
        <time>2026-03-29T12:55:17.274Z</time>
      </trkpt>
      <trkpt lat="42.65888" lon="-70.67264">
        <ele>0</ele>
        <time>2026-03-29T12:55:18.274Z</time>
      </trkpt>
      <trkpt lat="42.66084" lon="-70.67098">
        <ele>0</ele>
        <time>2026-03-29T12:55:19.274Z</time>
      </trkpt>
      <trkpt lat="42.66181" lon="-70.67094">
        <ele>0</ele>
        <time>2026-03-29T12:55:20.274Z</time>
      </trkpt>
      <trkpt lat="42.66511" lon="-70.66788">
        <ele>0</ele>
        <time>2026-03-29T12:55:21.274Z</time>
      </trkpt>
      <trkpt lat="42.66646" lon="-70.66762">
        <ele>0</ele>
        <time>2026-03-29T12:55:22.274Z</time>
      </trkpt>
      <trkpt lat="42.67238" lon="-70.66422">
        <ele>0</ele>
        <time>2026-03-29T12:55:23.274Z</time>
      </trkpt>
      <trkpt lat="42.67474" lon="-70.66203">
        <ele>0</ele>
        <time>2026-03-29T12:55:24.274Z</time>
      </trkpt>
      <trkpt lat="42.67647" lon="-70.66118">
        <ele>0</ele>
        <time>2026-03-29T12:55:25.274Z</time>
      </trkpt>
      <trkpt lat="42.67744" lon="-70.6598">
        <ele>0</ele>
        <time>2026-03-29T12:55:26.274Z</time>
      </trkpt>
      <trkpt lat="42.67771" lon="-70.65773">
        <ele>0</ele>
        <time>2026-03-29T12:55:27.274Z</time>
      </trkpt>
      <trkpt lat="42.67835" lon="-70.65684">
        <ele>0</ele>
        <time>2026-03-29T12:55:28.274Z</time>
      </trkpt>
      <trkpt lat="42.67795" lon="-70.65303">
        <ele>0</ele>
        <time>2026-03-29T12:55:29.274Z</time>
      </trkpt>
      <trkpt lat="42.67934" lon="-70.64945">
        <ele>0</ele>
        <time>2026-03-29T12:55:30.274Z</time>
      </trkpt>
      <trkpt lat="42.68028" lon="-70.64765">
        <ele>0</ele>
        <time>2026-03-29T12:55:31.274Z</time>
      </trkpt>
      <trkpt lat="42.68328" lon="-70.64448">
        <ele>0</ele>
        <time>2026-03-29T12:55:32.274Z</time>
      </trkpt>
      <trkpt lat="42.68385" lon="-70.64219">
        <ele>0</ele>
        <time>2026-03-29T12:55:33.274Z</time>
      </trkpt>
      <trkpt lat="42.68528" lon="-70.6413">
        <ele>0</ele>
        <time>2026-03-29T12:55:34.274Z</time>
      </trkpt>
      <trkpt lat="42.68736" lon="-70.63807">
        <ele>0</ele>
        <time>2026-03-29T12:55:35.274Z</time>
      </trkpt>
      <trkpt lat="42.68746" lon="-70.63727">
        <ele>0</ele>
        <time>2026-03-29T12:55:36.274Z</time>
      </trkpt>
      <trkpt lat="42.68644" lon="-70.63475">
        <ele>0</ele>
        <time>2026-03-29T12:55:37.274Z</time>
      </trkpt>
      <trkpt lat="42.68621" lon="-70.63287">
        <ele>0</ele>
        <time>2026-03-29T12:55:38.274Z</time>
      </trkpt>
      <trkpt lat="42.6848" lon="-70.63162">
        <ele>0</ele>
        <time>2026-03-29T12:55:39.274Z</time>
      </trkpt>
      <trkpt lat="42.68262" lon="-70.63065">
        <ele>0</ele>
        <time>2026-03-29T12:55:40.274Z</time>
      </trkpt>
      <trkpt lat="42.68149" lon="-70.62769">
        <ele>0</ele>
        <time>2026-03-29T12:55:41.274Z</time>
      </trkpt>
      <trkpt lat="42.68209" lon="-70.62706">
        <ele>0</ele>
        <time>2026-03-29T12:55:42.274Z</time>
      </trkpt>
      <trkpt lat="42.68153" lon="-70.62582">
        <ele>0</ele>
        <time>2026-03-29T12:55:43.274Z</time>
      </trkpt>
      <trkpt lat="42.68062" lon="-70.62516">
        <ele>0</ele>
        <time>2026-03-29T12:55:44.274Z</time>
      </trkpt>
      <trkpt lat="42.68235" lon="-70.62469">
        <ele>0</ele>
        <time>2026-03-29T12:55:45.274Z</time>
      </trkpt>
      <trkpt lat="42.68305" lon="-70.62832">
        <ele>0</ele>
        <time>2026-03-29T12:55:46.274Z</time>
      </trkpt>
      <trkpt lat="42.68181" lon="-70.62873">
        <ele>0</ele>
        <time>2026-03-29T12:55:47.274Z</time>
      </trkpt>
      <trkpt lat="42.68204" lon="-70.62948">
        <ele>0</ele>
        <time>2026-03-29T12:55:48.274Z</time>
      </trkpt>
      <trkpt lat="42.68276" lon="-70.63078">
        <ele>0</ele>
        <time>2026-03-29T12:55:49.274Z</time>
      </trkpt>
      <trkpt lat="42.68608" lon="-70.63256">
        <ele>0</ele>
        <time>2026-03-29T12:55:50.274Z</time>
      </trkpt>
      <trkpt lat="42.68744" lon="-70.63789">
        <ele>0</ele>
        <time>2026-03-29T12:55:51.274Z</time>
      </trkpt>
      <trkpt lat="42.68528" lon="-70.6413">
        <ele>0</ele>
        <time>2026-03-29T12:55:52.274Z</time>
      </trkpt>
      <trkpt lat="42.68385" lon="-70.64219">
        <ele>0</ele>
        <time>2026-03-29T12:55:53.274Z</time>
      </trkpt>
      <trkpt lat="42.68328" lon="-70.64448">
        <ele>0</ele>
        <time>2026-03-29T12:55:54.274Z</time>
      </trkpt>
      <trkpt lat="42.68219" lon="-70.6456">
        <ele>0</ele>
        <time>2026-03-29T12:55:55.274Z</time>
      </trkpt>
      <trkpt lat="42.67952" lon="-70.65424">
        <ele>0</ele>
        <time>2026-03-29T12:55:56.274Z</time>
      </trkpt>
      <trkpt lat="42.67914" lon="-70.65728">
        <ele>0</ele>
        <time>2026-03-29T12:55:57.274Z</time>
      </trkpt>
      <trkpt lat="42.67775" lon="-70.65764">
        <ele>0</ele>
        <time>2026-03-29T12:55:58.274Z</time>
      </trkpt>
      <trkpt lat="42.6775" lon="-70.65968">
        <ele>0</ele>
        <time>2026-03-29T12:55:59.274Z</time>
      </trkpt>
      <trkpt lat="42.67647" lon="-70.66118">
        <ele>0</ele>
        <time>2026-03-29T12:56:00.274Z</time>
      </trkpt>
      <trkpt lat="42.67474" lon="-70.66203">
        <ele>0</ele>
        <time>2026-03-29T12:56:01.274Z</time>
      </trkpt>
      <trkpt lat="42.67238" lon="-70.66422">
        <ele>0</ele>
        <time>2026-03-29T12:56:02.274Z</time>
      </trkpt>
      <trkpt lat="42.66646" lon="-70.66762">
        <ele>0</ele>
        <time>2026-03-29T12:56:03.274Z</time>
      </trkpt>
      <trkpt lat="42.66511" lon="-70.66788">
        <ele>0</ele>
        <time>2026-03-29T12:56:04.274Z</time>
      </trkpt>
      <trkpt lat="42.66181" lon="-70.67094">
        <ele>0</ele>
        <time>2026-03-29T12:56:05.274Z</time>
      </trkpt>
      <trkpt lat="42.66084" lon="-70.67098">
        <ele>0</ele>
        <time>2026-03-29T12:56:06.274Z</time>
      </trkpt>
      <trkpt lat="42.65888" lon="-70.67264">
        <ele>0</ele>
        <time>2026-03-29T12:56:07.274Z</time>
      </trkpt>
      <trkpt lat="42.65484" lon="-70.67394">
        <ele>0</ele>
        <time>2026-03-29T12:56:08.274Z</time>
      </trkpt>
      <trkpt lat="42.65362" lon="-70.67394">
        <ele>0</ele>
        <time>2026-03-29T12:56:09.274Z</time>
      </trkpt>
      <trkpt lat="42.65141" lon="-70.6722">
        <ele>0</ele>
        <time>2026-03-29T12:56:10.274Z</time>
      </trkpt>
      <trkpt lat="42.64808" lon="-70.67358">
        <ele>0</ele>
        <time>2026-03-29T12:56:11.274Z</time>
      </trkpt>
      <trkpt lat="42.64694" lon="-70.67362">
        <ele>0</ele>
        <time>2026-03-29T12:56:12.274Z</time>
      </trkpt>
      <trkpt lat="42.64211" lon="-70.67085">
        <ele>0</ele>
        <time>2026-03-29T12:56:13.274Z</time>
      </trkpt>
      <trkpt lat="42.64014" lon="-70.67255">
        <ele>0</ele>
        <time>2026-03-29T12:56:14.274Z</time>
      </trkpt>
      <trkpt lat="42.63391" lon="-70.6755">
        <ele>0</ele>
        <time>2026-03-29T12:56:15.274Z</time>
      </trkpt>
      <trkpt lat="42.63294" lon="-70.67644">
        <ele>0</ele>
        <time>2026-03-29T12:56:16.274Z</time>
      </trkpt>
      <trkpt lat="42.63224" lon="-70.67846">
        <ele>0</ele>
        <time>2026-03-29T12:56:17.274Z</time>
      </trkpt>
      <trkpt lat="42.62906" lon="-70.6794">
        <ele>0</ele>
        <time>2026-03-29T12:56:18.274Z</time>
      </trkpt>
      <trkpt lat="42.62877" lon="-70.67797">
        <ele>0</ele>
        <time>2026-03-29T12:56:19.274Z</time>
      </trkpt>
      <trkpt lat="42.62773" lon="-70.67774">
        <ele>0</ele>
        <time>2026-03-29T12:56:20.274Z</time>
      </trkpt>
      <trkpt lat="42.62697" lon="-70.67577">
        <ele>0</ele>
        <time>2026-03-29T12:56:21.274Z</time>
      </trkpt>
      <trkpt lat="42.62686" lon="-70.67358">
        <ele>0</ele>
        <time>2026-03-29T12:56:22.274Z</time>
      </trkpt>
      <trkpt lat="42.62714" lon="-70.67323">
        <ele>0</ele>
        <time>2026-03-29T12:56:23.274Z</time>
      </trkpt>
    </trkseg>
  </trk>
</gpx>