<?xml version="1.0" encoding="UTF-8"?>
<gpx version="1.1" creator="DownloadGPX" xmlns="http://www.topografix.com/GPX/1/1" xmlns:xsi="http://www.w3.org/2001/XMLSchema-instance" xsi:schemaLocation="http://www.topografix.com/GPX/1/1 http://www.topografix.com/GPX/1/1/gpx.xsd">
  <metadata>
    <name>Marblehead Half Marathon</name>
    <time>2026-03-29T12:52:40.343Z</time>
  </metadata>
  <trk>
    <name>Marblehead Half Marathon</name>
    <trkseg>
      <trkpt lat="42.4928" lon="-70.86943">
        <ele>0</ele>
        <time>2026-03-29T12:52:40.343Z</time>
      </trkpt>
      <trkpt lat="42.49375" lon="-70.87039">
        <ele>0</ele>
        <time>2026-03-29T12:52:41.343Z</time>
      </trkpt>
      <trkpt lat="42.49573" lon="-70.86331">
        <ele>0</ele>
        <time>2026-03-29T12:52:42.343Z</time>
      </trkpt>
      <trkpt lat="42.49205" lon="-70.85732">
        <ele>0</ele>
        <time>2026-03-29T12:52:43.343Z</time>
      </trkpt>
      <trkpt lat="42.49139" lon="-70.85477">
        <ele>0</ele>
        <time>2026-03-29T12:52:44.343Z</time>
      </trkpt>
      <trkpt lat="42.49197" lon="-70.84957">
        <ele>0</ele>
        <time>2026-03-29T12:52:45.343Z</time>
      </trkpt>
      <trkpt lat="42.49178" lon="-70.84702">
        <ele>0</ele>
        <time>2026-03-29T12:52:46.343Z</time>
      </trkpt>
      <trkpt lat="42.49093" lon="-70.84488">
        <ele>0</ele>
        <time>2026-03-29T12:52:47.343Z</time>
      </trkpt>
      <trkpt lat="42.4893" lon="-70.8429">
        <ele>0</ele>
        <time>2026-03-29T12:52:48.343Z</time>
      </trkpt>
      <trkpt lat="42.48913" lon="-70.84205">
        <ele>0</ele>
        <time>2026-03-29T12:52:49.343Z</time>
      </trkpt>
      <trkpt lat="42.4895" lon="-70.84026">
        <ele>0</ele>
        <time>2026-03-29T12:52:50.343Z</time>
      </trkpt>
      <trkpt lat="42.49067" lon="-70.83977">
        <ele>0</ele>
        <time>2026-03-29T12:52:51.343Z</time>
      </trkpt>
      <trkpt lat="42.49178" lon="-70.83673">
        <ele>0</ele>
        <time>2026-03-29T12:52:52.343Z</time>
      </trkpt>
      <trkpt lat="42.49388" lon="-70.83588">
        <ele>0</ele>
        <time>2026-03-29T12:52:53.343Z</time>
      </trkpt>
      <trkpt lat="42.49721" lon="-70.83651">
        <ele>0</ele>
        <time>2026-03-29T12:52:54.343Z</time>
      </trkpt>
      <trkpt lat="42.49873" lon="-70.83861">
        <ele>0</ele>
        <time>2026-03-29T12:52:55.343Z</time>
      </trkpt>
      <trkpt lat="42.49667" lon="-70.84134">
        <ele>0</ele>
        <time>2026-03-29T12:52:56.343Z</time>
      </trkpt>
      <trkpt lat="42.49442" lon="-70.84303">
        <ele>0</ele>
        <time>2026-03-29T12:52:57.343Z</time>
      </trkpt>
      <trkpt lat="42.49349" lon="-70.84487">
        <ele>0</ele>
        <time>2026-03-29T12:52:58.343Z</time>
      </trkpt>
      <trkpt lat="42.49199" lon="-70.84612">
        <ele>0</ele>
        <time>2026-03-29T12:52:59.343Z</time>
      </trkpt>
      <trkpt lat="42.49178" lon="-70.84702">
        <ele>0</ele>
        <time>2026-03-29T12:53:00.343Z</time>
      </trkpt>
      <trkpt lat="42.49197" lon="-70.84957">
        <ele>0</ele>
        <time>2026-03-29T12:53:01.343Z</time>
      </trkpt>
      <trkpt lat="42.49139" lon="-70.85477">
        <ele>0</ele>
        <time>2026-03-29T12:53:02.343Z</time>
      </trkpt>
      <trkpt lat="42.49224" lon="-70.85777">
        <ele>0</ele>
        <time>2026-03-29T12:53:03.343Z</time>
      </trkpt>
      <trkpt lat="42.49573" lon="-70.86331">
        <ele>0</ele>
        <time>2026-03-29T12:53:04.343Z</time>
      </trkpt>
      <trkpt lat="42.49387" lon="-70.87066">
        <ele>0</ele>
        <time>2026-03-29T12:53:05.343Z</time>
      </trkpt>
      <trkpt lat="42.4928" lon="-70.88163">
        <ele>0</ele>
        <time>2026-03-29T12:53:06.343Z</time>
      </trkpt>
      <trkpt lat="42.49437" lon="-70.8853">
        <ele>0</ele>
        <time>2026-03-29T12:53:07.343Z</time>
      </trkpt>
      <trkpt lat="42.49654" lon="-70.88619">
        <ele>0</ele>
        <time>2026-03-29T12:53:08.343Z</time>
      </trkpt>
      <trkpt lat="42.49841" lon="-70.88866">
        <ele>0</ele>
        <time>2026-03-29T12:53:09.343Z</time>
      </trkpt>
      <trkpt lat="42.5023" lon="-70.88905">
        <ele>0</ele>
        <time>2026-03-29T12:53:10.343Z</time>
      </trkpt>
      <trkpt lat="42.50519" lon="-70.89074">
        <ele>0</ele>
        <time>2026-03-29T12:53:11.343Z</time>
      </trkpt>
      <trkpt lat="42.51948" lon="-70.8934">
        <ele>0</ele>
        <time>2026-03-29T12:53:12.343Z</time>
      </trkpt>
      <trkpt lat="42.52068" lon="-70.89031">
        <ele>0</ele>
        <time>2026-03-29T12:53:13.343Z</time>
      </trkpt>
      <trkpt lat="42.52074" lon="-70.88877">
        <ele>0</ele>
        <time>2026-03-29T12:53:14.343Z</time>
      </trkpt>
      <trkpt lat="42.52136" lon="-70.88701">
        <ele>0</ele>
        <time>2026-03-29T12:53:15.343Z</time>
      </trkpt>
      <trkpt lat="42.52348" lon="-70.88255">
        <ele>0</ele>
        <time>2026-03-29T12:53:16.343Z</time>
      </trkpt>
      <trkpt lat="42.52677" lon="-70.87937">
        <ele>0</ele>
        <time>2026-03-29T12:53:17.343Z</time>
      </trkpt>
      <trkpt lat="42.5314" lon="-70.87259">
        <ele>0</ele>
        <time>2026-03-29T12:53:18.343Z</time>
      </trkpt>
      <trkpt lat="42.53217" lon="-70.87222">
        <ele>0</ele>
        <time>2026-03-29T12:53:19.343Z</time>
      </trkpt>
      <trkpt lat="42.5333" lon="-70.87365">
        <ele>0</ele>
        <time>2026-03-29T12:53:20.343Z</time>
      </trkpt>
      <trkpt lat="42.53301" lon="-70.87509">
        <ele>0</ele>
        <time>2026-03-29T12:53:21.343Z</time>
      </trkpt>
      <trkpt lat="42.52932" lon="-70.8797">
        <ele>0</ele>
        <time>2026-03-29T12:53:22.343Z</time>
      </trkpt>
      <trkpt lat="42.52781" lon="-70.88247">
        <ele>0</ele>
        <time>2026-03-29T12:53:23.343Z</time>
      </trkpt>
      <trkpt lat="42.52358" lon="-70.88586">
        <ele>0</ele>
        <time>2026-03-29T12:53:24.343Z</time>
      </trkpt>
      <trkpt lat="42.52274" lon="-70.88745">
        <ele>0</ele>
        <time>2026-03-29T12:53:25.343Z</time>
      </trkpt>
      <trkpt lat="42.52246" lon="-70.89053">
        <ele>0</ele>
        <time>2026-03-29T12:53:26.343Z</time>
      </trkpt>
      <trkpt lat="42.5207" lon="-70.89013">
        <ele>0</ele>
        <time>2026-03-29T12:53:27.343Z</time>
      </trkpt>
      <trkpt lat="42.51948" lon="-70.8934">
        <ele>0</ele>
        <time>2026-03-29T12:53:28.343Z</time>
      </trkpt>
      <trkpt lat="42.50512" lon="-70.89089">
        <ele>0</ele>
        <time>2026-03-29T12:53:29.343Z</time>
      </trkpt>
      <trkpt lat="42.5023" lon="-70.88905">
        <ele>0</ele>
        <time>2026-03-29T12:53:30.343Z</time>
      </trkpt>
      <trkpt lat="42.49841" lon="-70.88866">
        <ele>0</ele>
        <time>2026-03-29T12:53:31.343Z</time>
      </trkpt>
      <trkpt lat="42.49654" lon="-70.88619">
        <ele>0</ele>
        <time>2026-03-29T12:53:32.343Z</time>
      </trkpt>
      <trkpt lat="42.49436" lon="-70.88529">
        <ele>0</ele>
        <time>2026-03-29T12:53:33.343Z</time>
      </trkpt>
      <trkpt lat="42.4928" lon="-70.88177">
        <ele>0</ele>
        <time>2026-03-29T12:53:34.343Z</time>
      </trkpt>
      <trkpt lat="42.49359" lon="-70.87315">
        <ele>0</ele>
        <time>2026-03-29T12:53:35.343Z</time>
      </trkpt>
      <trkpt lat="42.49259" lon="-70.87295">
        <ele>0</ele>
        <time>2026-03-29T12:53:36.343Z</time>
      </trkpt>
      <trkpt lat="42.49375" lon="-70.87039">
        <ele>0</ele>
        <time>2026-03-29T12:53:37.343Z</time>
      </trkpt>
      <trkpt lat="42.49282" lon="-70.86948">
        <ele>0</ele>
        <time>2026-03-29T12:53:38.343Z</time>
      </trkpt>
    </trkseg>
  </trk>
</gpx>