<?xml version="1.0" encoding="UTF-8"?>
<gpx version="1.1" creator="DownloadGPX" xmlns="http://www.topografix.com/GPX/1/1" xmlns:xsi="http://www.w3.org/2001/XMLSchema-instance" xsi:schemaLocation="http://www.topografix.com/GPX/1/1 http://www.topografix.com/GPX/1/1/gpx.xsd">
  <metadata>
    <name>OceanView Half Marathon</name>
    <time>2026-03-29T18:59:22.653Z</time>
  </metadata>
  <trk>
    <name>OceanView Half Marathon</name>
    <trkseg>
      <trkpt lat="42.68884" lon="-70.85015">
        <ele>0</ele>
        <time>2026-03-29T18:59:22.653Z</time>
      </trkpt>
      <trkpt lat="42.68781" lon="-70.85096">
        <ele>0</ele>
        <time>2026-03-29T18:59:23.653Z</time>
      </trkpt>
      <trkpt lat="42.68805" lon="-70.85168">
        <ele>0</ele>
        <time>2026-03-29T18:59:24.653Z</time>
      </trkpt>
      <trkpt lat="42.68468" lon="-70.85521">
        <ele>0</ele>
        <time>2026-03-29T18:59:25.653Z</time>
      </trkpt>
      <trkpt lat="42.68495" lon="-70.85739">
        <ele>0</ele>
        <time>2026-03-29T18:59:26.653Z</time>
      </trkpt>
      <trkpt lat="42.68667" lon="-70.86009">
        <ele>0</ele>
        <time>2026-03-29T18:59:27.653Z</time>
      </trkpt>
      <trkpt lat="42.6876" lon="-70.86358">
        <ele>0</ele>
        <time>2026-03-29T18:59:28.653Z</time>
      </trkpt>
      <trkpt lat="42.68732" lon="-70.86976">
        <ele>0</ele>
        <time>2026-03-29T18:59:29.653Z</time>
      </trkpt>
      <trkpt lat="42.68686" lon="-70.87258">
        <ele>0</ele>
        <time>2026-03-29T18:59:30.653Z</time>
      </trkpt>
      <trkpt lat="42.68699" lon="-70.87701">
        <ele>0</ele>
        <time>2026-03-29T18:59:31.653Z</time>
      </trkpt>
      <trkpt lat="42.69079" lon="-70.87174">
        <ele>0</ele>
        <time>2026-03-29T18:59:32.653Z</time>
      </trkpt>
      <trkpt lat="42.69589" lon="-70.86649">
        <ele>0</ele>
        <time>2026-03-29T18:59:33.653Z</time>
      </trkpt>
      <trkpt lat="42.69282" lon="-70.85727">
        <ele>0</ele>
        <time>2026-03-29T18:59:34.653Z</time>
      </trkpt>
      <trkpt lat="42.68825" lon="-70.84808">
        <ele>0</ele>
        <time>2026-03-29T18:59:35.653Z</time>
      </trkpt>
      <trkpt lat="42.6847" lon="-70.84318">
        <ele>0</ele>
        <time>2026-03-29T18:59:36.653Z</time>
      </trkpt>
      <trkpt lat="42.68394" lon="-70.84089">
        <ele>0</ele>
        <time>2026-03-29T18:59:37.653Z</time>
      </trkpt>
      <trkpt lat="42.68348" lon="-70.83481">
        <ele>0</ele>
        <time>2026-03-29T18:59:38.653Z</time>
      </trkpt>
      <trkpt lat="42.68268" lon="-70.83284">
        <ele>0</ele>
        <time>2026-03-29T18:59:39.653Z</time>
      </trkpt>
      <trkpt lat="42.68364" lon="-70.82848">
        <ele>0</ele>
        <time>2026-03-29T18:59:40.653Z</time>
      </trkpt>
      <trkpt lat="42.68562" lon="-70.82621">
        <ele>0</ele>
        <time>2026-03-29T18:59:41.653Z</time>
      </trkpt>
      <trkpt lat="42.68682" lon="-70.82647">
        <ele>0</ele>
        <time>2026-03-29T18:59:42.653Z</time>
      </trkpt>
      <trkpt lat="42.68926" lon="-70.82513">
        <ele>0</ele>
        <time>2026-03-29T18:59:43.653Z</time>
      </trkpt>
      <trkpt lat="42.69168" lon="-70.82504">
        <ele>0</ele>
        <time>2026-03-29T18:59:44.653Z</time>
      </trkpt>
      <trkpt lat="42.69426" lon="-70.82374">
        <ele>0</ele>
        <time>2026-03-29T18:59:45.653Z</time>
      </trkpt>
      <trkpt lat="42.70106" lon="-70.81622">
        <ele>0</ele>
        <time>2026-03-29T18:59:46.653Z</time>
      </trkpt>
      <trkpt lat="42.70206" lon="-70.81616">
        <ele>0</ele>
        <time>2026-03-29T18:59:47.653Z</time>
      </trkpt>
      <trkpt lat="42.70387" lon="-70.81734">
        <ele>0</ele>
        <time>2026-03-29T18:59:48.653Z</time>
      </trkpt>
      <trkpt lat="42.70482" lon="-70.81716">
        <ele>0</ele>
        <time>2026-03-29T18:59:49.653Z</time>
      </trkpt>
      <trkpt lat="42.70537" lon="-70.81649">
        <ele>0</ele>
        <time>2026-03-29T18:59:50.653Z</time>
      </trkpt>
      <trkpt lat="42.70587" lon="-70.81335">
        <ele>0</ele>
        <time>2026-03-29T18:59:51.653Z</time>
      </trkpt>
      <trkpt lat="42.70568" lon="-70.81219">
        <ele>0</ele>
        <time>2026-03-29T18:59:52.653Z</time>
      </trkpt>
      <trkpt lat="42.70507" lon="-70.81089">
        <ele>0</ele>
        <time>2026-03-29T18:59:53.653Z</time>
      </trkpt>
      <trkpt lat="42.70279" lon="-70.80825">
        <ele>0</ele>
        <time>2026-03-29T18:59:54.653Z</time>
      </trkpt>
      <trkpt lat="42.70213" lon="-70.80467">
        <ele>0</ele>
        <time>2026-03-29T18:59:55.653Z</time>
      </trkpt>
      <trkpt lat="42.69795" lon="-70.80144">
        <ele>0</ele>
        <time>2026-03-29T18:59:56.653Z</time>
      </trkpt>
      <trkpt lat="42.6966" lon="-70.79956">
        <ele>0</ele>
        <time>2026-03-29T18:59:57.653Z</time>
      </trkpt>
      <trkpt lat="42.69701" lon="-70.79693">
        <ele>0</ele>
        <time>2026-03-29T18:59:58.653Z</time>
      </trkpt>
      <trkpt lat="42.69884" lon="-70.79316">
        <ele>0</ele>
        <time>2026-03-29T18:59:59.653Z</time>
      </trkpt>
      <trkpt lat="42.69991" lon="-70.79241">
        <ele>0</ele>
        <time>2026-03-29T19:00:00.653Z</time>
      </trkpt>
      <trkpt lat="42.70136" lon="-70.79456">
        <ele>0</ele>
        <time>2026-03-29T19:00:01.653Z</time>
      </trkpt>
      <trkpt lat="42.70244" lon="-70.79912">
        <ele>0</ele>
        <time>2026-03-29T19:00:02.653Z</time>
      </trkpt>
      <trkpt lat="42.70296" lon="-70.79993">
        <ele>0</ele>
        <time>2026-03-29T19:00:03.653Z</time>
      </trkpt>
      <trkpt lat="42.70664" lon="-70.80122">
        <ele>0</ele>
        <time>2026-03-29T19:00:04.653Z</time>
      </trkpt>
      <trkpt lat="42.70721" lon="-70.80055">
        <ele>0</ele>
        <time>2026-03-29T19:00:05.653Z</time>
      </trkpt>
      <trkpt lat="42.70743" lon="-70.79823">
        <ele>0</ele>
        <time>2026-03-29T19:00:06.653Z</time>
      </trkpt>
      <trkpt lat="42.70821" lon="-70.79859">
        <ele>0</ele>
        <time>2026-03-29T19:00:07.653Z</time>
      </trkpt>
      <trkpt lat="42.70922" lon="-70.80093">
        <ele>0</ele>
        <time>2026-03-29T19:00:08.653Z</time>
      </trkpt>
      <trkpt lat="42.70986" lon="-70.80414">
        <ele>0</ele>
        <time>2026-03-29T19:00:09.653Z</time>
      </trkpt>
      <trkpt lat="42.70978" lon="-70.8078">
        <ele>0</ele>
        <time>2026-03-29T19:00:10.653Z</time>
      </trkpt>
      <trkpt lat="42.70901" lon="-70.81165">
        <ele>0</ele>
        <time>2026-03-29T19:00:11.653Z</time>
      </trkpt>
      <trkpt lat="42.70638" lon="-70.81259">
        <ele>0</ele>
        <time>2026-03-29T19:00:12.653Z</time>
      </trkpt>
      <trkpt lat="42.70548" lon="-70.81622">
        <ele>0</ele>
        <time>2026-03-29T19:00:13.653Z</time>
      </trkpt>
      <trkpt lat="42.70481" lon="-70.81716">
        <ele>0</ele>
        <time>2026-03-29T19:00:14.653Z</time>
      </trkpt>
      <trkpt lat="42.70387" lon="-70.81734">
        <ele>0</ele>
        <time>2026-03-29T19:00:15.653Z</time>
      </trkpt>
      <trkpt lat="42.70206" lon="-70.81616">
        <ele>0</ele>
        <time>2026-03-29T19:00:16.653Z</time>
      </trkpt>
      <trkpt lat="42.70087" lon="-70.81632">
        <ele>0</ele>
        <time>2026-03-29T19:00:17.653Z</time>
      </trkpt>
      <trkpt lat="42.69426" lon="-70.82374">
        <ele>0</ele>
        <time>2026-03-29T19:00:18.653Z</time>
      </trkpt>
      <trkpt lat="42.69168" lon="-70.82504">
        <ele>0</ele>
        <time>2026-03-29T19:00:19.653Z</time>
      </trkpt>
      <trkpt lat="42.68926" lon="-70.82513">
        <ele>0</ele>
        <time>2026-03-29T19:00:20.653Z</time>
      </trkpt>
      <trkpt lat="42.68682" lon="-70.82647">
        <ele>0</ele>
        <time>2026-03-29T19:00:21.653Z</time>
      </trkpt>
      <trkpt lat="42.68573" lon="-70.82616">
        <ele>0</ele>
        <time>2026-03-29T19:00:22.653Z</time>
      </trkpt>
      <trkpt lat="42.68364" lon="-70.82848">
        <ele>0</ele>
        <time>2026-03-29T19:00:23.653Z</time>
      </trkpt>
      <trkpt lat="42.68268" lon="-70.83284">
        <ele>0</ele>
        <time>2026-03-29T19:00:24.653Z</time>
      </trkpt>
      <trkpt lat="42.68348" lon="-70.83481">
        <ele>0</ele>
        <time>2026-03-29T19:00:25.653Z</time>
      </trkpt>
      <trkpt lat="42.684" lon="-70.84123">
        <ele>0</ele>
        <time>2026-03-29T19:00:26.653Z</time>
      </trkpt>
      <trkpt lat="42.68498" lon="-70.8438">
        <ele>0</ele>
        <time>2026-03-29T19:00:27.653Z</time>
      </trkpt>
      <trkpt lat="42.68825" lon="-70.84808">
        <ele>0</ele>
        <time>2026-03-29T19:00:28.653Z</time>
      </trkpt>
      <trkpt lat="42.68954" lon="-70.8509">
        <ele>0</ele>
        <time>2026-03-29T19:00:29.653Z</time>
      </trkpt>
      <trkpt lat="42.68935" lon="-70.85109">
        <ele>0</ele>
        <time>2026-03-29T19:00:30.653Z</time>
      </trkpt>
    </trkseg>
  </trk>
</gpx>