<?xml version="1.0" encoding="UTF-8"?>
<gpx version="1.1" creator="DownloadGPX" xmlns="http://www.topografix.com/GPX/1/1" xmlns:xsi="http://www.w3.org/2001/XMLSchema-instance" xsi:schemaLocation="http://www.topografix.com/GPX/1/1 http://www.topografix.com/GPX/1/1/gpx.xsd">
  <metadata>
    <name>Barns &amp; Blooms Half Marathon</name>
    <time>2026-03-29T12:53:42.193Z</time>
  </metadata>
  <trk>
    <name>Barns &amp; Blooms Half Marathon</name>
    <trkseg>
      <trkpt lat="42.62982" lon="-70.84854">
        <ele>0</ele>
        <time>2026-03-29T12:53:42.193Z</time>
      </trkpt>
      <trkpt lat="42.62999" lon="-70.84898">
        <ele>0</ele>
        <time>2026-03-29T12:53:43.193Z</time>
      </trkpt>
      <trkpt lat="42.63079" lon="-70.84841">
        <ele>0</ele>
        <time>2026-03-29T12:53:44.193Z</time>
      </trkpt>
      <trkpt lat="42.63641" lon="-70.84349">
        <ele>0</ele>
        <time>2026-03-29T12:53:45.193Z</time>
      </trkpt>
      <trkpt lat="42.6393" lon="-70.84474">
        <ele>0</ele>
        <time>2026-03-29T12:53:46.193Z</time>
      </trkpt>
      <trkpt lat="42.64993" lon="-70.8429">
        <ele>0</ele>
        <time>2026-03-29T12:53:47.193Z</time>
      </trkpt>
      <trkpt lat="42.65263" lon="-70.84402">
        <ele>0</ele>
        <time>2026-03-29T12:53:48.193Z</time>
      </trkpt>
      <trkpt lat="42.65582" lon="-70.8446">
        <ele>0</ele>
        <time>2026-03-29T12:53:49.193Z</time>
      </trkpt>
      <trkpt lat="42.65947" lon="-70.84241">
        <ele>0</ele>
        <time>2026-03-29T12:53:50.193Z</time>
      </trkpt>
      <trkpt lat="42.65873" lon="-70.84004">
        <ele>0</ele>
        <time>2026-03-29T12:53:51.193Z</time>
      </trkpt>
      <trkpt lat="42.6582" lon="-70.8352">
        <ele>0</ele>
        <time>2026-03-29T12:53:52.193Z</time>
      </trkpt>
      <trkpt lat="42.66029" lon="-70.82687">
        <ele>0</ele>
        <time>2026-03-29T12:53:53.193Z</time>
      </trkpt>
      <trkpt lat="42.65782" lon="-70.8228">
        <ele>0</ele>
        <time>2026-03-29T12:53:54.193Z</time>
      </trkpt>
      <trkpt lat="42.65627" lon="-70.81766">
        <ele>0</ele>
        <time>2026-03-29T12:53:55.193Z</time>
      </trkpt>
      <trkpt lat="42.65399" lon="-70.80669">
        <ele>0</ele>
        <time>2026-03-29T12:53:56.193Z</time>
      </trkpt>
      <trkpt lat="42.65124" lon="-70.80011">
        <ele>0</ele>
        <time>2026-03-29T12:53:57.193Z</time>
      </trkpt>
      <trkpt lat="42.65098" lon="-70.79746">
        <ele>0</ele>
        <time>2026-03-29T12:53:58.193Z</time>
      </trkpt>
      <trkpt lat="42.65139" lon="-70.79244">
        <ele>0</ele>
        <time>2026-03-29T12:53:59.193Z</time>
      </trkpt>
      <trkpt lat="42.65085" lon="-70.78855">
        <ele>0</ele>
        <time>2026-03-29T12:54:00.193Z</time>
      </trkpt>
      <trkpt lat="42.65011" lon="-70.78685">
        <ele>0</ele>
        <time>2026-03-29T12:54:01.193Z</time>
      </trkpt>
      <trkpt lat="42.64823" lon="-70.78432">
        <ele>0</ele>
        <time>2026-03-29T12:54:02.193Z</time>
      </trkpt>
      <trkpt lat="42.64457" lon="-70.78085">
        <ele>0</ele>
        <time>2026-03-29T12:54:03.193Z</time>
      </trkpt>
      <trkpt lat="42.64317" lon="-70.78071">
        <ele>0</ele>
        <time>2026-03-29T12:54:04.193Z</time>
      </trkpt>
      <trkpt lat="42.63552" lon="-70.78247">
        <ele>0</ele>
        <time>2026-03-29T12:54:05.193Z</time>
      </trkpt>
      <trkpt lat="42.63284" lon="-70.78792">
        <ele>0</ele>
        <time>2026-03-29T12:54:06.193Z</time>
      </trkpt>
      <trkpt lat="42.62598" lon="-70.7932">
        <ele>0</ele>
        <time>2026-03-29T12:54:07.193Z</time>
      </trkpt>
      <trkpt lat="42.62422" lon="-70.79565">
        <ele>0</ele>
        <time>2026-03-29T12:54:08.193Z</time>
      </trkpt>
      <trkpt lat="42.62294" lon="-70.79897">
        <ele>0</ele>
        <time>2026-03-29T12:54:09.193Z</time>
      </trkpt>
      <trkpt lat="42.62336" lon="-70.80149">
        <ele>0</ele>
        <time>2026-03-29T12:54:10.193Z</time>
      </trkpt>
      <trkpt lat="42.62475" lon="-70.8019">
        <ele>0</ele>
        <time>2026-03-29T12:54:11.193Z</time>
      </trkpt>
      <trkpt lat="42.62531" lon="-70.80337">
        <ele>0</ele>
        <time>2026-03-29T12:54:12.193Z</time>
      </trkpt>
      <trkpt lat="42.62423" lon="-70.80605">
        <ele>0</ele>
        <time>2026-03-29T12:54:13.193Z</time>
      </trkpt>
      <trkpt lat="42.62316" lon="-70.80659">
        <ele>0</ele>
        <time>2026-03-29T12:54:14.193Z</time>
      </trkpt>
      <trkpt lat="42.62276" lon="-70.80919">
        <ele>0</ele>
        <time>2026-03-29T12:54:15.193Z</time>
      </trkpt>
      <trkpt lat="42.62187" lon="-70.81143">
        <ele>0</ele>
        <time>2026-03-29T12:54:16.193Z</time>
      </trkpt>
      <trkpt lat="42.62218" lon="-70.81651">
        <ele>0</ele>
        <time>2026-03-29T12:54:17.193Z</time>
      </trkpt>
      <trkpt lat="42.62131" lon="-70.82016">
        <ele>0</ele>
        <time>2026-03-29T12:54:18.193Z</time>
      </trkpt>
      <trkpt lat="42.62029" lon="-70.82101">
        <ele>0</ele>
        <time>2026-03-29T12:54:19.193Z</time>
      </trkpt>
      <trkpt lat="42.61747" lon="-70.82128">
        <ele>0</ele>
        <time>2026-03-29T12:54:20.193Z</time>
      </trkpt>
      <trkpt lat="42.61627" lon="-70.82193">
        <ele>0</ele>
        <time>2026-03-29T12:54:21.193Z</time>
      </trkpt>
      <trkpt lat="42.61357" lon="-70.82665">
        <ele>0</ele>
        <time>2026-03-29T12:54:22.193Z</time>
      </trkpt>
      <trkpt lat="42.6099" lon="-70.82898">
        <ele>0</ele>
        <time>2026-03-29T12:54:23.193Z</time>
      </trkpt>
      <trkpt lat="42.61075" lon="-70.83036">
        <ele>0</ele>
        <time>2026-03-29T12:54:24.193Z</time>
      </trkpt>
      <trkpt lat="42.60924" lon="-70.8329">
        <ele>0</ele>
        <time>2026-03-29T12:54:25.193Z</time>
      </trkpt>
      <trkpt lat="42.6096" lon="-70.83395">
        <ele>0</ele>
        <time>2026-03-29T12:54:26.193Z</time>
      </trkpt>
      <trkpt lat="42.60881" lon="-70.83395">
        <ele>0</ele>
        <time>2026-03-29T12:54:27.193Z</time>
      </trkpt>
      <trkpt lat="42.60885" lon="-70.83209">
        <ele>0</ele>
        <time>2026-03-29T12:54:28.193Z</time>
      </trkpt>
      <trkpt lat="42.60794" lon="-70.83135">
        <ele>0</ele>
        <time>2026-03-29T12:54:29.193Z</time>
      </trkpt>
      <trkpt lat="42.60703" lon="-70.83274">
        <ele>0</ele>
        <time>2026-03-29T12:54:30.193Z</time>
      </trkpt>
      <trkpt lat="42.60581" lon="-70.83299">
        <ele>0</ele>
        <time>2026-03-29T12:54:31.193Z</time>
      </trkpt>
      <trkpt lat="42.60548" lon="-70.83838">
        <ele>0</ele>
        <time>2026-03-29T12:54:32.193Z</time>
      </trkpt>
      <trkpt lat="42.60909" lon="-70.83789">
        <ele>0</ele>
        <time>2026-03-29T12:54:33.193Z</time>
      </trkpt>
      <trkpt lat="42.61023" lon="-70.83923">
        <ele>0</ele>
        <time>2026-03-29T12:54:34.193Z</time>
      </trkpt>
      <trkpt lat="42.61249" lon="-70.84053">
        <ele>0</ele>
        <time>2026-03-29T12:54:35.193Z</time>
      </trkpt>
      <trkpt lat="42.61394" lon="-70.8408">
        <ele>0</ele>
        <time>2026-03-29T12:54:36.193Z</time>
      </trkpt>
      <trkpt lat="42.61524" lon="-70.84514">
        <ele>0</ele>
        <time>2026-03-29T12:54:37.193Z</time>
      </trkpt>
      <trkpt lat="42.61539" lon="-70.85052">
        <ele>0</ele>
        <time>2026-03-29T12:54:38.193Z</time>
      </trkpt>
      <trkpt lat="42.6165" lon="-70.85194">
        <ele>0</ele>
        <time>2026-03-29T12:54:39.193Z</time>
      </trkpt>
      <trkpt lat="42.61698" lon="-70.85373">
        <ele>0</ele>
        <time>2026-03-29T12:54:40.193Z</time>
      </trkpt>
      <trkpt lat="42.6185" lon="-70.85575">
        <ele>0</ele>
        <time>2026-03-29T12:54:41.193Z</time>
      </trkpt>
      <trkpt lat="42.62317" lon="-70.85378">
        <ele>0</ele>
        <time>2026-03-29T12:54:42.193Z</time>
      </trkpt>
      <trkpt lat="42.62861" lon="-70.85014">
        <ele>0</ele>
        <time>2026-03-29T12:54:43.193Z</time>
      </trkpt>
      <trkpt lat="42.62846" lon="-70.84948">
        <ele>0</ele>
        <time>2026-03-29T12:54:44.193Z</time>
      </trkpt>
      <trkpt lat="42.62893" lon="-70.84911">
        <ele>0</ele>
        <time>2026-03-29T12:54:45.193Z</time>
      </trkpt>
    </trkseg>
  </trk>
</gpx>