<?xml version="1.0" encoding="UTF-8"?>
<gpx version="1.1" creator="DownloadGPX" xmlns="http://www.topografix.com/GPX/1/1" xmlns:xsi="http://www.w3.org/2001/XMLSchema-instance" xsi:schemaLocation="http://www.topografix.com/GPX/1/1 http://www.topografix.com/GPX/1/1/gpx.xsd">
  <metadata>
    <name>Twin Lobster Half Marathon</name>
    <time>2026-03-29T12:57:36.665Z</time>
  </metadata>
  <trk>
    <name>Twin Lobster Half Marathon</name>
    <trkseg>
      <trkpt lat="42.61395" lon="-70.67523">
        <ele>0</ele>
        <time>2026-03-29T12:57:36.665Z</time>
      </trkpt>
      <trkpt lat="42.61286" lon="-70.67488">
        <ele>0</ele>
        <time>2026-03-29T12:57:37.665Z</time>
      </trkpt>
      <trkpt lat="42.61243" lon="-70.67402">
        <ele>0</ele>
        <time>2026-03-29T12:57:38.665Z</time>
      </trkpt>
      <trkpt lat="42.61249" lon="-70.67318">
        <ele>0</ele>
        <time>2026-03-29T12:57:39.665Z</time>
      </trkpt>
      <trkpt lat="42.61005" lon="-70.67272">
        <ele>0</ele>
        <time>2026-03-29T12:57:40.665Z</time>
      </trkpt>
      <trkpt lat="42.61024" lon="-70.66794">
        <ele>0</ele>
        <time>2026-03-29T12:57:41.665Z</time>
      </trkpt>
      <trkpt lat="42.61128" lon="-70.6665">
        <ele>0</ele>
        <time>2026-03-29T12:57:42.665Z</time>
      </trkpt>
      <trkpt lat="42.61107" lon="-70.66602">
        <ele>0</ele>
        <time>2026-03-29T12:57:43.665Z</time>
      </trkpt>
      <trkpt lat="42.61188" lon="-70.66426">
        <ele>0</ele>
        <time>2026-03-29T12:57:44.665Z</time>
      </trkpt>
      <trkpt lat="42.61201" lon="-70.66176">
        <ele>0</ele>
        <time>2026-03-29T12:57:45.665Z</time>
      </trkpt>
      <trkpt lat="42.61271" lon="-70.65983">
        <ele>0</ele>
        <time>2026-03-29T12:57:46.665Z</time>
      </trkpt>
      <trkpt lat="42.61429" lon="-70.6581">
        <ele>0</ele>
        <time>2026-03-29T12:57:47.665Z</time>
      </trkpt>
      <trkpt lat="42.61651" lon="-70.65397">
        <ele>0</ele>
        <time>2026-03-29T12:57:48.665Z</time>
      </trkpt>
      <trkpt lat="42.61725" lon="-70.65153">
        <ele>0</ele>
        <time>2026-03-29T12:57:49.665Z</time>
      </trkpt>
      <trkpt lat="42.61699" lon="-70.64871">
        <ele>0</ele>
        <time>2026-03-29T12:57:50.665Z</time>
      </trkpt>
      <trkpt lat="42.61647" lon="-70.64802">
        <ele>0</ele>
        <time>2026-03-29T12:57:51.665Z</time>
      </trkpt>
      <trkpt lat="42.61437" lon="-70.64796">
        <ele>0</ele>
        <time>2026-03-29T12:57:52.665Z</time>
      </trkpt>
      <trkpt lat="42.61327" lon="-70.6486">
        <ele>0</ele>
        <time>2026-03-29T12:57:53.665Z</time>
      </trkpt>
      <trkpt lat="42.61186" lon="-70.64856">
        <ele>0</ele>
        <time>2026-03-29T12:57:54.665Z</time>
      </trkpt>
      <trkpt lat="42.61021" lon="-70.65092">
        <ele>0</ele>
        <time>2026-03-29T12:57:55.665Z</time>
      </trkpt>
      <trkpt lat="42.60803" lon="-70.65111">
        <ele>0</ele>
        <time>2026-03-29T12:57:56.665Z</time>
      </trkpt>
      <trkpt lat="42.60628" lon="-70.65339">
        <ele>0</ele>
        <time>2026-03-29T12:57:57.665Z</time>
      </trkpt>
      <trkpt lat="42.60446" lon="-70.65382">
        <ele>0</ele>
        <time>2026-03-29T12:57:58.665Z</time>
      </trkpt>
      <trkpt lat="42.60256" lon="-70.65544">
        <ele>0</ele>
        <time>2026-03-29T12:57:59.665Z</time>
      </trkpt>
      <trkpt lat="42.601" lon="-70.65507">
        <ele>0</ele>
        <time>2026-03-29T12:58:00.665Z</time>
      </trkpt>
      <trkpt lat="42.59898" lon="-70.65558">
        <ele>0</ele>
        <time>2026-03-29T12:58:01.665Z</time>
      </trkpt>
      <trkpt lat="42.59711" lon="-70.65406">
        <ele>0</ele>
        <time>2026-03-29T12:58:02.665Z</time>
      </trkpt>
      <trkpt lat="42.59573" lon="-70.65039">
        <ele>0</ele>
        <time>2026-03-29T12:58:03.665Z</time>
      </trkpt>
      <trkpt lat="42.59419" lon="-70.6443">
        <ele>0</ele>
        <time>2026-03-29T12:58:04.665Z</time>
      </trkpt>
      <trkpt lat="42.59645" lon="-70.64103">
        <ele>0</ele>
        <time>2026-03-29T12:58:05.665Z</time>
      </trkpt>
      <trkpt lat="42.59802" lon="-70.63986">
        <ele>0</ele>
        <time>2026-03-29T12:58:06.665Z</time>
      </trkpt>
      <trkpt lat="42.60026" lon="-70.63613">
        <ele>0</ele>
        <time>2026-03-29T12:58:07.665Z</time>
      </trkpt>
      <trkpt lat="42.60272" lon="-70.63539">
        <ele>0</ele>
        <time>2026-03-29T12:58:08.665Z</time>
      </trkpt>
      <trkpt lat="42.60545" lon="-70.63333">
        <ele>0</ele>
        <time>2026-03-29T12:58:09.665Z</time>
      </trkpt>
      <trkpt lat="42.60847" lon="-70.63324">
        <ele>0</ele>
        <time>2026-03-29T12:58:10.665Z</time>
      </trkpt>
      <trkpt lat="42.60963" lon="-70.63401">
        <ele>0</ele>
        <time>2026-03-29T12:58:11.665Z</time>
      </trkpt>
      <trkpt lat="42.61093" lon="-70.63396">
        <ele>0</ele>
        <time>2026-03-29T12:58:12.665Z</time>
      </trkpt>
      <trkpt lat="42.61194" lon="-70.63512">
        <ele>0</ele>
        <time>2026-03-29T12:58:13.665Z</time>
      </trkpt>
      <trkpt lat="42.61607" lon="-70.63414">
        <ele>0</ele>
        <time>2026-03-29T12:58:14.665Z</time>
      </trkpt>
      <trkpt lat="42.61849" lon="-70.63701">
        <ele>0</ele>
        <time>2026-03-29T12:58:15.665Z</time>
      </trkpt>
      <trkpt lat="42.61794" lon="-70.63919">
        <ele>0</ele>
        <time>2026-03-29T12:58:16.665Z</time>
      </trkpt>
      <trkpt lat="42.61643" lon="-70.63784">
        <ele>0</ele>
        <time>2026-03-29T12:58:17.665Z</time>
      </trkpt>
      <trkpt lat="42.61493" lon="-70.6404">
        <ele>0</ele>
        <time>2026-03-29T12:58:18.665Z</time>
      </trkpt>
      <trkpt lat="42.61253" lon="-70.64326">
        <ele>0</ele>
        <time>2026-03-29T12:58:19.665Z</time>
      </trkpt>
      <trkpt lat="42.6103" lon="-70.63405">
        <ele>0</ele>
        <time>2026-03-29T12:58:20.665Z</time>
      </trkpt>
      <trkpt lat="42.60826" lon="-70.63319">
        <ele>0</ele>
        <time>2026-03-29T12:58:21.665Z</time>
      </trkpt>
      <trkpt lat="42.60545" lon="-70.63333">
        <ele>0</ele>
        <time>2026-03-29T12:58:22.665Z</time>
      </trkpt>
      <trkpt lat="42.60272" lon="-70.63539">
        <ele>0</ele>
        <time>2026-03-29T12:58:23.665Z</time>
      </trkpt>
      <trkpt lat="42.60026" lon="-70.63613">
        <ele>0</ele>
        <time>2026-03-29T12:58:24.665Z</time>
      </trkpt>
      <trkpt lat="42.602" lon="-70.63848">
        <ele>0</ele>
        <time>2026-03-29T12:58:25.665Z</time>
      </trkpt>
      <trkpt lat="42.60066" lon="-70.64044">
        <ele>0</ele>
        <time>2026-03-29T12:58:26.665Z</time>
      </trkpt>
      <trkpt lat="42.60091" lon="-70.6443">
        <ele>0</ele>
        <time>2026-03-29T12:58:27.665Z</time>
      </trkpt>
      <trkpt lat="42.59971" lon="-70.64622">
        <ele>0</ele>
        <time>2026-03-29T12:58:28.665Z</time>
      </trkpt>
      <trkpt lat="42.59888" lon="-70.64537">
        <ele>0</ele>
        <time>2026-03-29T12:58:29.665Z</time>
      </trkpt>
      <trkpt lat="42.59852" lon="-70.64327">
        <ele>0</ele>
        <time>2026-03-29T12:58:30.665Z</time>
      </trkpt>
      <trkpt lat="42.59732" lon="-70.64166">
        <ele>0</ele>
        <time>2026-03-29T12:58:31.665Z</time>
      </trkpt>
      <trkpt lat="42.59729" lon="-70.64044">
        <ele>0</ele>
        <time>2026-03-29T12:58:32.665Z</time>
      </trkpt>
      <trkpt lat="42.59631" lon="-70.64121">
        <ele>0</ele>
        <time>2026-03-29T12:58:33.665Z</time>
      </trkpt>
      <trkpt lat="42.59418" lon="-70.64429">
        <ele>0</ele>
        <time>2026-03-29T12:58:34.665Z</time>
      </trkpt>
      <trkpt lat="42.59573" lon="-70.65039">
        <ele>0</ele>
        <time>2026-03-29T12:58:35.665Z</time>
      </trkpt>
      <trkpt lat="42.59711" lon="-70.65406">
        <ele>0</ele>
        <time>2026-03-29T12:58:36.665Z</time>
      </trkpt>
      <trkpt lat="42.59897" lon="-70.65558">
        <ele>0</ele>
        <time>2026-03-29T12:58:37.665Z</time>
      </trkpt>
      <trkpt lat="42.601" lon="-70.65507">
        <ele>0</ele>
        <time>2026-03-29T12:58:38.665Z</time>
      </trkpt>
      <trkpt lat="42.60256" lon="-70.65544">
        <ele>0</ele>
        <time>2026-03-29T12:58:39.665Z</time>
      </trkpt>
      <trkpt lat="42.60446" lon="-70.65382">
        <ele>0</ele>
        <time>2026-03-29T12:58:40.665Z</time>
      </trkpt>
      <trkpt lat="42.60628" lon="-70.65339">
        <ele>0</ele>
        <time>2026-03-29T12:58:41.665Z</time>
      </trkpt>
      <trkpt lat="42.60803" lon="-70.65111">
        <ele>0</ele>
        <time>2026-03-29T12:58:42.665Z</time>
      </trkpt>
      <trkpt lat="42.61021" lon="-70.65092">
        <ele>0</ele>
        <time>2026-03-29T12:58:43.665Z</time>
      </trkpt>
      <trkpt lat="42.61165" lon="-70.64865">
        <ele>0</ele>
        <time>2026-03-29T12:58:44.665Z</time>
      </trkpt>
      <trkpt lat="42.61327" lon="-70.6486">
        <ele>0</ele>
        <time>2026-03-29T12:58:45.665Z</time>
      </trkpt>
      <trkpt lat="42.61479" lon="-70.64774">
        <ele>0</ele>
        <time>2026-03-29T12:58:46.665Z</time>
      </trkpt>
      <trkpt lat="42.61648" lon="-70.64525">
        <ele>0</ele>
        <time>2026-03-29T12:58:47.665Z</time>
      </trkpt>
      <trkpt lat="42.61687" lon="-70.64577">
        <ele>0</ele>
        <time>2026-03-29T12:58:48.665Z</time>
      </trkpt>
      <trkpt lat="42.61731" lon="-70.64707">
        <ele>0</ele>
        <time>2026-03-29T12:58:49.665Z</time>
      </trkpt>
      <trkpt lat="42.61738" lon="-70.65177">
        <ele>0</ele>
        <time>2026-03-29T12:58:50.665Z</time>
      </trkpt>
      <trkpt lat="42.61651" lon="-70.65414">
        <ele>0</ele>
        <time>2026-03-29T12:58:51.665Z</time>
      </trkpt>
      <trkpt lat="42.61429" lon="-70.6581">
        <ele>0</ele>
        <time>2026-03-29T12:58:52.665Z</time>
      </trkpt>
      <trkpt lat="42.61271" lon="-70.65983">
        <ele>0</ele>
        <time>2026-03-29T12:58:53.665Z</time>
      </trkpt>
      <trkpt lat="42.61201" lon="-70.66176">
        <ele>0</ele>
        <time>2026-03-29T12:58:54.665Z</time>
      </trkpt>
      <trkpt lat="42.61188" lon="-70.66426">
        <ele>0</ele>
        <time>2026-03-29T12:58:55.665Z</time>
      </trkpt>
      <trkpt lat="42.61112" lon="-70.66583">
        <ele>0</ele>
        <time>2026-03-29T12:58:56.665Z</time>
      </trkpt>
      <trkpt lat="42.61137" lon="-70.66633">
        <ele>0</ele>
        <time>2026-03-29T12:58:57.665Z</time>
      </trkpt>
      <trkpt lat="42.61036" lon="-70.66745">
        <ele>0</ele>
        <time>2026-03-29T12:58:58.665Z</time>
      </trkpt>
      <trkpt lat="42.61005" lon="-70.67272">
        <ele>0</ele>
        <time>2026-03-29T12:58:59.665Z</time>
      </trkpt>
      <trkpt lat="42.61249" lon="-70.67318">
        <ele>0</ele>
        <time>2026-03-29T12:59:00.665Z</time>
      </trkpt>
      <trkpt lat="42.61243" lon="-70.67402">
        <ele>0</ele>
        <time>2026-03-29T12:59:01.665Z</time>
      </trkpt>
      <trkpt lat="42.61286" lon="-70.67488">
        <ele>0</ele>
        <time>2026-03-29T12:59:02.665Z</time>
      </trkpt>
      <trkpt lat="42.61369" lon="-70.67515">
        <ele>0</ele>
        <time>2026-03-29T12:59:03.665Z</time>
      </trkpt>
      <trkpt lat="42.61365" lon="-70.67558">
        <ele>0</ele>
        <time>2026-03-29T12:59:04.665Z</time>
      </trkpt>
    </trkseg>
  </trk>
</gpx>