<?xml version="1.0" encoding="UTF-8"?>
<gpx version="1.1" creator="DownloadGPX" xmlns="http://www.topografix.com/GPX/1/1" xmlns:xsi="http://www.w3.org/2001/XMLSchema-instance" xsi:schemaLocation="http://www.topografix.com/GPX/1/1 http://www.topografix.com/GPX/1/1/gpx.xsd">
  <metadata>
    <name>Town &amp; Country Half Marathon</name>
    <time>2026-03-29T18:48:01.359Z</time>
  </metadata>
  <trk>
    <name>Town &amp; Country Half Marathon</name>
    <trkseg>
      <trkpt lat="42.80225" lon="-70.88078">
        <ele>0</ele>
        <time>2026-03-29T18:48:01.359Z</time>
      </trkpt>
      <trkpt lat="42.80035" lon="-70.88098">
        <ele>0</ele>
        <time>2026-03-29T18:48:02.359Z</time>
      </trkpt>
      <trkpt lat="42.80068" lon="-70.88647">
        <ele>0</ele>
        <time>2026-03-29T18:48:03.359Z</time>
      </trkpt>
      <trkpt lat="42.79904" lon="-70.89223">
        <ele>0</ele>
        <time>2026-03-29T18:48:04.359Z</time>
      </trkpt>
      <trkpt lat="42.79681" lon="-70.89097">
        <ele>0</ele>
        <time>2026-03-29T18:48:05.359Z</time>
      </trkpt>
      <trkpt lat="42.79576" lon="-70.88946">
        <ele>0</ele>
        <time>2026-03-29T18:48:06.359Z</time>
      </trkpt>
      <trkpt lat="42.79252" lon="-70.89204">
        <ele>0</ele>
        <time>2026-03-29T18:48:07.359Z</time>
      </trkpt>
      <trkpt lat="42.79065" lon="-70.90209">
        <ele>0</ele>
        <time>2026-03-29T18:48:08.359Z</time>
      </trkpt>
      <trkpt lat="42.78861" lon="-70.90822">
        <ele>0</ele>
        <time>2026-03-29T18:48:09.359Z</time>
      </trkpt>
      <trkpt lat="42.78792" lon="-70.91477">
        <ele>0</ele>
        <time>2026-03-29T18:48:10.359Z</time>
      </trkpt>
      <trkpt lat="42.78711" lon="-70.91606">
        <ele>0</ele>
        <time>2026-03-29T18:48:11.359Z</time>
      </trkpt>
      <trkpt lat="42.78394" lon="-70.91888">
        <ele>0</ele>
        <time>2026-03-29T18:48:12.359Z</time>
      </trkpt>
      <trkpt lat="42.78082" lon="-70.92387">
        <ele>0</ele>
        <time>2026-03-29T18:48:13.359Z</time>
      </trkpt>
      <trkpt lat="42.77868" lon="-70.93387">
        <ele>0</ele>
        <time>2026-03-29T18:48:14.359Z</time>
      </trkpt>
      <trkpt lat="42.77595" lon="-70.94032">
        <ele>0</ele>
        <time>2026-03-29T18:48:15.359Z</time>
      </trkpt>
      <trkpt lat="42.7689" lon="-70.95186">
        <ele>0</ele>
        <time>2026-03-29T18:48:16.359Z</time>
      </trkpt>
      <trkpt lat="42.76902" lon="-70.95275">
        <ele>0</ele>
        <time>2026-03-29T18:48:17.359Z</time>
      </trkpt>
      <trkpt lat="42.7738" lon="-70.96016">
        <ele>0</ele>
        <time>2026-03-29T18:48:18.359Z</time>
      </trkpt>
      <trkpt lat="42.77421" lon="-70.95795">
        <ele>0</ele>
        <time>2026-03-29T18:48:19.359Z</time>
      </trkpt>
      <trkpt lat="42.77595" lon="-70.95513">
        <ele>0</ele>
        <time>2026-03-29T18:48:20.359Z</time>
      </trkpt>
      <trkpt lat="42.77799" lon="-70.95819">
        <ele>0</ele>
        <time>2026-03-29T18:48:21.359Z</time>
      </trkpt>
      <trkpt lat="42.77923" lon="-70.95845">
        <ele>0</ele>
        <time>2026-03-29T18:48:22.359Z</time>
      </trkpt>
      <trkpt lat="42.78106" lon="-70.95714">
        <ele>0</ele>
        <time>2026-03-29T18:48:23.359Z</time>
      </trkpt>
      <trkpt lat="42.78223" lon="-70.95501">
        <ele>0</ele>
        <time>2026-03-29T18:48:24.359Z</time>
      </trkpt>
      <trkpt lat="42.78331" lon="-70.9547">
        <ele>0</ele>
        <time>2026-03-29T18:48:25.359Z</time>
      </trkpt>
      <trkpt lat="42.78415" lon="-70.95536">
        <ele>0</ele>
        <time>2026-03-29T18:48:26.359Z</time>
      </trkpt>
      <trkpt lat="42.78588" lon="-70.95859">
        <ele>0</ele>
        <time>2026-03-29T18:48:27.359Z</time>
      </trkpt>
      <trkpt lat="42.78695" lon="-70.95627">
        <ele>0</ele>
        <time>2026-03-29T18:48:28.359Z</time>
      </trkpt>
      <trkpt lat="42.78852" lon="-70.95101">
        <ele>0</ele>
        <time>2026-03-29T18:48:29.359Z</time>
      </trkpt>
      <trkpt lat="42.78796" lon="-70.94917">
        <ele>0</ele>
        <time>2026-03-29T18:48:30.359Z</time>
      </trkpt>
      <trkpt lat="42.79085" lon="-70.94722">
        <ele>0</ele>
        <time>2026-03-29T18:48:31.359Z</time>
      </trkpt>
      <trkpt lat="42.79284" lon="-70.9451">
        <ele>0</ele>
        <time>2026-03-29T18:48:32.359Z</time>
      </trkpt>
      <trkpt lat="42.79531" lon="-70.9439">
        <ele>0</ele>
        <time>2026-03-29T18:48:33.359Z</time>
      </trkpt>
      <trkpt lat="42.79439" lon="-70.93934">
        <ele>0</ele>
        <time>2026-03-29T18:48:34.359Z</time>
      </trkpt>
      <trkpt lat="42.79495" lon="-70.93612">
        <ele>0</ele>
        <time>2026-03-29T18:48:35.359Z</time>
      </trkpt>
      <trkpt lat="42.79414" lon="-70.93186">
        <ele>0</ele>
        <time>2026-03-29T18:48:36.359Z</time>
      </trkpt>
      <trkpt lat="42.7944" lon="-70.92944">
        <ele>0</ele>
        <time>2026-03-29T18:48:37.359Z</time>
      </trkpt>
      <trkpt lat="42.79267" lon="-70.92743">
        <ele>0</ele>
        <time>2026-03-29T18:48:38.359Z</time>
      </trkpt>
      <trkpt lat="42.78738" lon="-70.93481">
        <ele>0</ele>
        <time>2026-03-29T18:48:39.359Z</time>
      </trkpt>
      <trkpt lat="42.78589" lon="-70.93477">
        <ele>0</ele>
        <time>2026-03-29T18:48:40.359Z</time>
      </trkpt>
      <trkpt lat="42.78387" lon="-70.93392">
        <ele>0</ele>
        <time>2026-03-29T18:48:41.359Z</time>
      </trkpt>
      <trkpt lat="42.7833" lon="-70.93158">
        <ele>0</ele>
        <time>2026-03-29T18:48:42.359Z</time>
      </trkpt>
      <trkpt lat="42.78164" lon="-70.92859">
        <ele>0</ele>
        <time>2026-03-29T18:48:43.359Z</time>
      </trkpt>
      <trkpt lat="42.78099" lon="-70.92864">
        <ele>0</ele>
        <time>2026-03-29T18:48:44.359Z</time>
      </trkpt>
      <trkpt lat="42.77962" lon="-70.93008">
        <ele>0</ele>
        <time>2026-03-29T18:48:45.359Z</time>
      </trkpt>
      <trkpt lat="42.78082" lon="-70.92387">
        <ele>0</ele>
        <time>2026-03-29T18:48:46.359Z</time>
      </trkpt>
      <trkpt lat="42.78394" lon="-70.91888">
        <ele>0</ele>
        <time>2026-03-29T18:48:47.359Z</time>
      </trkpt>
      <trkpt lat="42.78711" lon="-70.91606">
        <ele>0</ele>
        <time>2026-03-29T18:48:48.359Z</time>
      </trkpt>
      <trkpt lat="42.78802" lon="-70.9145">
        <ele>0</ele>
        <time>2026-03-29T18:48:49.359Z</time>
      </trkpt>
      <trkpt lat="42.78861" lon="-70.90822">
        <ele>0</ele>
        <time>2026-03-29T18:48:50.359Z</time>
      </trkpt>
      <trkpt lat="42.79065" lon="-70.90209">
        <ele>0</ele>
        <time>2026-03-29T18:48:51.359Z</time>
      </trkpt>
      <trkpt lat="42.79252" lon="-70.89204">
        <ele>0</ele>
        <time>2026-03-29T18:48:52.359Z</time>
      </trkpt>
      <trkpt lat="42.79294" lon="-70.89137">
        <ele>0</ele>
        <time>2026-03-29T18:48:53.359Z</time>
      </trkpt>
      <trkpt lat="42.79512" lon="-70.89014">
        <ele>0</ele>
        <time>2026-03-29T18:48:54.359Z</time>
      </trkpt>
      <trkpt lat="42.79714" lon="-70.88754">
        <ele>0</ele>
        <time>2026-03-29T18:48:55.359Z</time>
      </trkpt>
      <trkpt lat="42.80065" lon="-70.88476">
        <ele>0</ele>
        <time>2026-03-29T18:48:56.359Z</time>
      </trkpt>
      <trkpt lat="42.80035" lon="-70.88098">
        <ele>0</ele>
        <time>2026-03-29T18:48:57.359Z</time>
      </trkpt>
      <trkpt lat="42.80217" lon="-70.88081">
        <ele>0</ele>
        <time>2026-03-29T18:48:58.359Z</time>
      </trkpt>
    </trkseg>
  </trk>
</gpx>