<?xml version="1.0" encoding="UTF-8"?>
<gpx version="1.1" creator="DownloadGPX" xmlns="http://www.topografix.com/GPX/1/1" xmlns:xsi="http://www.w3.org/2001/XMLSchema-instance" xsi:schemaLocation="http://www.topografix.com/GPX/1/1 http://www.topografix.com/GPX/1/1/gpx.xsd">
  <metadata>
    <name>Twin Lights Half Marathon</name>
    <time>2026-03-29T12:53:13.197Z</time>
  </metadata>
  <trk>
    <name>Twin Lights Half Marathon</name>
    <trkseg>
      <trkpt lat="42.62198" lon="-70.63158">
        <ele>0</ele>
        <time>2026-03-29T12:53:13.197Z</time>
      </trkpt>
      <trkpt lat="42.62262" lon="-70.63155">
        <ele>0</ele>
        <time>2026-03-29T12:53:14.197Z</time>
      </trkpt>
      <trkpt lat="42.62512" lon="-70.62546">
        <ele>0</ele>
        <time>2026-03-29T12:53:15.197Z</time>
      </trkpt>
      <trkpt lat="42.62711" lon="-70.62308">
        <ele>0</ele>
        <time>2026-03-29T12:53:16.197Z</time>
      </trkpt>
      <trkpt lat="42.62832" lon="-70.62245">
        <ele>0</ele>
        <time>2026-03-29T12:53:17.197Z</time>
      </trkpt>
      <trkpt lat="42.63064" lon="-70.62254">
        <ele>0</ele>
        <time>2026-03-29T12:53:18.197Z</time>
      </trkpt>
      <trkpt lat="42.63186" lon="-70.6216">
        <ele>0</ele>
        <time>2026-03-29T12:53:19.197Z</time>
      </trkpt>
      <trkpt lat="42.6325" lon="-70.6169">
        <ele>0</ele>
        <time>2026-03-29T12:53:20.197Z</time>
      </trkpt>
      <trkpt lat="42.63545" lon="-70.61086">
        <ele>0</ele>
        <time>2026-03-29T12:53:21.197Z</time>
      </trkpt>
      <trkpt lat="42.63663" lon="-70.60715">
        <ele>0</ele>
        <time>2026-03-29T12:53:22.197Z</time>
      </trkpt>
      <trkpt lat="42.63901" lon="-70.60485">
        <ele>0</ele>
        <time>2026-03-29T12:53:23.197Z</time>
      </trkpt>
      <trkpt lat="42.64036" lon="-70.60141">
        <ele>0</ele>
        <time>2026-03-29T12:53:24.197Z</time>
      </trkpt>
      <trkpt lat="42.64151" lon="-70.6005">
        <ele>0</ele>
        <time>2026-03-29T12:53:25.197Z</time>
      </trkpt>
      <trkpt lat="42.64433" lon="-70.59984">
        <ele>0</ele>
        <time>2026-03-29T12:53:26.197Z</time>
      </trkpt>
      <trkpt lat="42.64672" lon="-70.59855">
        <ele>0</ele>
        <time>2026-03-29T12:53:27.197Z</time>
      </trkpt>
      <trkpt lat="42.64996" lon="-70.59903">
        <ele>0</ele>
        <time>2026-03-29T12:53:28.197Z</time>
      </trkpt>
      <trkpt lat="42.65303" lon="-70.60133">
        <ele>0</ele>
        <time>2026-03-29T12:53:29.197Z</time>
      </trkpt>
      <trkpt lat="42.65411" lon="-70.60396">
        <ele>0</ele>
        <time>2026-03-29T12:53:30.197Z</time>
      </trkpt>
      <trkpt lat="42.65514" lon="-70.61207">
        <ele>0</ele>
        <time>2026-03-29T12:53:31.197Z</time>
      </trkpt>
      <trkpt lat="42.65798" lon="-70.61612">
        <ele>0</ele>
        <time>2026-03-29T12:53:32.197Z</time>
      </trkpt>
      <trkpt lat="42.65724" lon="-70.61787">
        <ele>0</ele>
        <time>2026-03-29T12:53:33.197Z</time>
      </trkpt>
      <trkpt lat="42.65826" lon="-70.61885">
        <ele>0</ele>
        <time>2026-03-29T12:53:34.197Z</time>
      </trkpt>
      <trkpt lat="42.65826" lon="-70.62051">
        <ele>0</ele>
        <time>2026-03-29T12:53:35.197Z</time>
      </trkpt>
      <trkpt lat="42.65869" lon="-70.62137">
        <ele>0</ele>
        <time>2026-03-29T12:53:36.197Z</time>
      </trkpt>
      <trkpt lat="42.66108" lon="-70.62394">
        <ele>0</ele>
        <time>2026-03-29T12:53:37.197Z</time>
      </trkpt>
      <trkpt lat="42.66348" lon="-70.62449">
        <ele>0</ele>
        <time>2026-03-29T12:53:38.197Z</time>
      </trkpt>
      <trkpt lat="42.66479" lon="-70.62429">
        <ele>0</ele>
        <time>2026-03-29T12:53:39.197Z</time>
      </trkpt>
      <trkpt lat="42.66663" lon="-70.6253">
        <ele>0</ele>
        <time>2026-03-29T12:53:40.197Z</time>
      </trkpt>
      <trkpt lat="42.67058" lon="-70.62402">
        <ele>0</ele>
        <time>2026-03-29T12:53:41.197Z</time>
      </trkpt>
      <trkpt lat="42.67167" lon="-70.62281">
        <ele>0</ele>
        <time>2026-03-29T12:53:42.197Z</time>
      </trkpt>
      <trkpt lat="42.67479" lon="-70.62357">
        <ele>0</ele>
        <time>2026-03-29T12:53:43.197Z</time>
      </trkpt>
      <trkpt lat="42.67573" lon="-70.62442">
        <ele>0</ele>
        <time>2026-03-29T12:53:44.197Z</time>
      </trkpt>
      <trkpt lat="42.67774" lon="-70.62458">
        <ele>0</ele>
        <time>2026-03-29T12:53:45.197Z</time>
      </trkpt>
      <trkpt lat="42.68075" lon="-70.62648">
        <ele>0</ele>
        <time>2026-03-29T12:53:46.197Z</time>
      </trkpt>
      <trkpt lat="42.68262" lon="-70.63065">
        <ele>0</ele>
        <time>2026-03-29T12:53:47.197Z</time>
      </trkpt>
      <trkpt lat="42.68192" lon="-70.6319">
        <ele>0</ele>
        <time>2026-03-29T12:53:48.197Z</time>
      </trkpt>
      <trkpt lat="42.68016" lon="-70.63243">
        <ele>0</ele>
        <time>2026-03-29T12:53:49.197Z</time>
      </trkpt>
      <trkpt lat="42.67945" lon="-70.63176">
        <ele>0</ele>
        <time>2026-03-29T12:53:50.197Z</time>
      </trkpt>
      <trkpt lat="42.67923" lon="-70.63404">
        <ele>0</ele>
        <time>2026-03-29T12:53:51.197Z</time>
      </trkpt>
      <trkpt lat="42.67827" lon="-70.63494">
        <ele>0</ele>
        <time>2026-03-29T12:53:52.197Z</time>
      </trkpt>
      <trkpt lat="42.67623" lon="-70.63315">
        <ele>0</ele>
        <time>2026-03-29T12:53:53.197Z</time>
      </trkpt>
      <trkpt lat="42.67508" lon="-70.63355">
        <ele>0</ele>
        <time>2026-03-29T12:53:54.197Z</time>
      </trkpt>
      <trkpt lat="42.67367" lon="-70.63168">
        <ele>0</ele>
        <time>2026-03-29T12:53:55.197Z</time>
      </trkpt>
      <trkpt lat="42.67413" lon="-70.63029">
        <ele>0</ele>
        <time>2026-03-29T12:53:56.197Z</time>
      </trkpt>
      <trkpt lat="42.67509" lon="-70.62931">
        <ele>0</ele>
        <time>2026-03-29T12:53:57.197Z</time>
      </trkpt>
      <trkpt lat="42.67468" lon="-70.62737">
        <ele>0</ele>
        <time>2026-03-29T12:53:58.197Z</time>
      </trkpt>
      <trkpt lat="42.67496" lon="-70.62702">
        <ele>0</ele>
        <time>2026-03-29T12:53:59.197Z</time>
      </trkpt>
      <trkpt lat="42.67487" lon="-70.62514">
        <ele>0</ele>
        <time>2026-03-29T12:54:00.197Z</time>
      </trkpt>
      <trkpt lat="42.67543" lon="-70.62415">
        <ele>0</ele>
        <time>2026-03-29T12:54:01.197Z</time>
      </trkpt>
      <trkpt lat="42.67489" lon="-70.62361">
        <ele>0</ele>
        <time>2026-03-29T12:54:02.197Z</time>
      </trkpt>
      <trkpt lat="42.67167" lon="-70.62281">
        <ele>0</ele>
        <time>2026-03-29T12:54:03.197Z</time>
      </trkpt>
      <trkpt lat="42.67058" lon="-70.62402">
        <ele>0</ele>
        <time>2026-03-29T12:54:04.197Z</time>
      </trkpt>
      <trkpt lat="42.66663" lon="-70.6253">
        <ele>0</ele>
        <time>2026-03-29T12:54:05.197Z</time>
      </trkpt>
      <trkpt lat="42.66479" lon="-70.62429">
        <ele>0</ele>
        <time>2026-03-29T12:54:06.197Z</time>
      </trkpt>
      <trkpt lat="42.66348" lon="-70.62449">
        <ele>0</ele>
        <time>2026-03-29T12:54:07.197Z</time>
      </trkpt>
      <trkpt lat="42.66107" lon="-70.62393">
        <ele>0</ele>
        <time>2026-03-29T12:54:08.197Z</time>
      </trkpt>
      <trkpt lat="42.65869" lon="-70.62137">
        <ele>0</ele>
        <time>2026-03-29T12:54:09.197Z</time>
      </trkpt>
      <trkpt lat="42.65826" lon="-70.62051">
        <ele>0</ele>
        <time>2026-03-29T12:54:10.197Z</time>
      </trkpt>
      <trkpt lat="42.65854" lon="-70.61672">
        <ele>0</ele>
        <time>2026-03-29T12:54:11.197Z</time>
      </trkpt>
      <trkpt lat="42.65514" lon="-70.61207">
        <ele>0</ele>
        <time>2026-03-29T12:54:12.197Z</time>
      </trkpt>
      <trkpt lat="42.65489" lon="-70.6083">
        <ele>0</ele>
        <time>2026-03-29T12:54:13.197Z</time>
      </trkpt>
      <trkpt lat="42.65411" lon="-70.60396">
        <ele>0</ele>
        <time>2026-03-29T12:54:14.197Z</time>
      </trkpt>
      <trkpt lat="42.65303" lon="-70.60133">
        <ele>0</ele>
        <time>2026-03-29T12:54:15.197Z</time>
      </trkpt>
      <trkpt lat="42.64996" lon="-70.59903">
        <ele>0</ele>
        <time>2026-03-29T12:54:16.197Z</time>
      </trkpt>
      <trkpt lat="42.64672" lon="-70.59855">
        <ele>0</ele>
        <time>2026-03-29T12:54:17.197Z</time>
      </trkpt>
      <trkpt lat="42.6406" lon="-70.60109">
        <ele>0</ele>
        <time>2026-03-29T12:54:18.197Z</time>
      </trkpt>
      <trkpt lat="42.63901" lon="-70.60485">
        <ele>0</ele>
        <time>2026-03-29T12:54:19.197Z</time>
      </trkpt>
      <trkpt lat="42.63663" lon="-70.60715">
        <ele>0</ele>
        <time>2026-03-29T12:54:20.197Z</time>
      </trkpt>
      <trkpt lat="42.63545" lon="-70.61086">
        <ele>0</ele>
        <time>2026-03-29T12:54:21.197Z</time>
      </trkpt>
      <trkpt lat="42.63231" lon="-70.61739">
        <ele>0</ele>
        <time>2026-03-29T12:54:22.197Z</time>
      </trkpt>
      <trkpt lat="42.63224" lon="-70.62039">
        <ele>0</ele>
        <time>2026-03-29T12:54:23.197Z</time>
      </trkpt>
      <trkpt lat="42.63186" lon="-70.6216">
        <ele>0</ele>
        <time>2026-03-29T12:54:24.197Z</time>
      </trkpt>
      <trkpt lat="42.63064" lon="-70.62254">
        <ele>0</ele>
        <time>2026-03-29T12:54:25.197Z</time>
      </trkpt>
      <trkpt lat="42.62832" lon="-70.62245">
        <ele>0</ele>
        <time>2026-03-29T12:54:26.197Z</time>
      </trkpt>
      <trkpt lat="42.62711" lon="-70.62308">
        <ele>0</ele>
        <time>2026-03-29T12:54:27.197Z</time>
      </trkpt>
      <trkpt lat="42.62512" lon="-70.62546">
        <ele>0</ele>
        <time>2026-03-29T12:54:28.197Z</time>
      </trkpt>
      <trkpt lat="42.62262" lon="-70.63155">
        <ele>0</ele>
        <time>2026-03-29T12:54:29.197Z</time>
      </trkpt>
      <trkpt lat="42.62189" lon="-70.63159">
        <ele>0</ele>
        <time>2026-03-29T12:54:30.197Z</time>
      </trkpt>
    </trkseg>
  </trk>
</gpx>