<?xml version="1.0" encoding="UTF-8"?>
<gpx version="1.1" creator="DownloadGPX" xmlns="http://www.topografix.com/GPX/1/1" xmlns:xsi="http://www.w3.org/2001/XMLSchema-instance" xsi:schemaLocation="http://www.topografix.com/GPX/1/1 http://www.topografix.com/GPX/1/1/gpx.xsd">
  <metadata>
    <name>Happy Holidays Half MerryThon</name>
    <time>2026-03-29T18:59:54.709Z</time>
  </metadata>
  <trk>
    <name>Happy Holidays Half MerryThon</name>
    <trkseg>
      <trkpt lat="42.62181" lon="-70.63161">
        <ele>0</ele>
        <time>2026-03-29T18:59:54.709Z</time>
      </trkpt>
      <trkpt lat="42.62262" lon="-70.63155">
        <ele>0</ele>
        <time>2026-03-29T18:59:55.709Z</time>
      </trkpt>
      <trkpt lat="42.62512" lon="-70.62546">
        <ele>0</ele>
        <time>2026-03-29T18:59:56.709Z</time>
      </trkpt>
      <trkpt lat="42.62711" lon="-70.62308">
        <ele>0</ele>
        <time>2026-03-29T18:59:57.709Z</time>
      </trkpt>
      <trkpt lat="42.62832" lon="-70.62245">
        <ele>0</ele>
        <time>2026-03-29T18:59:58.709Z</time>
      </trkpt>
      <trkpt lat="42.63064" lon="-70.62254">
        <ele>0</ele>
        <time>2026-03-29T18:59:59.709Z</time>
      </trkpt>
      <trkpt lat="42.63186" lon="-70.6216">
        <ele>0</ele>
        <time>2026-03-29T19:00:00.709Z</time>
      </trkpt>
      <trkpt lat="42.63224" lon="-70.62039">
        <ele>0</ele>
        <time>2026-03-29T19:00:01.709Z</time>
      </trkpt>
      <trkpt lat="42.63231" lon="-70.61739">
        <ele>0</ele>
        <time>2026-03-29T19:00:02.709Z</time>
      </trkpt>
      <trkpt lat="42.63545" lon="-70.61086">
        <ele>0</ele>
        <time>2026-03-29T19:00:03.709Z</time>
      </trkpt>
      <trkpt lat="42.63663" lon="-70.60715">
        <ele>0</ele>
        <time>2026-03-29T19:00:04.709Z</time>
      </trkpt>
      <trkpt lat="42.63901" lon="-70.60485">
        <ele>0</ele>
        <time>2026-03-29T19:00:05.709Z</time>
      </trkpt>
      <trkpt lat="42.64018" lon="-70.60172">
        <ele>0</ele>
        <time>2026-03-29T19:00:06.709Z</time>
      </trkpt>
      <trkpt lat="42.64106" lon="-70.60072">
        <ele>0</ele>
        <time>2026-03-29T19:00:07.709Z</time>
      </trkpt>
      <trkpt lat="42.64095" lon="-70.6003">
        <ele>0</ele>
        <time>2026-03-29T19:00:08.709Z</time>
      </trkpt>
      <trkpt lat="42.63995" lon="-70.60021">
        <ele>0</ele>
        <time>2026-03-29T19:00:09.709Z</time>
      </trkpt>
      <trkpt lat="42.63723" lon="-70.60289">
        <ele>0</ele>
        <time>2026-03-29T19:00:10.709Z</time>
      </trkpt>
      <trkpt lat="42.63616" lon="-70.60351">
        <ele>0</ele>
        <time>2026-03-29T19:00:11.709Z</time>
      </trkpt>
      <trkpt lat="42.63562" lon="-70.60307">
        <ele>0</ele>
        <time>2026-03-29T19:00:12.709Z</time>
      </trkpt>
      <trkpt lat="42.63612" lon="-70.59985">
        <ele>0</ele>
        <time>2026-03-29T19:00:13.709Z</time>
      </trkpt>
      <trkpt lat="42.63586" lon="-70.59586">
        <ele>0</ele>
        <time>2026-03-29T19:00:14.709Z</time>
      </trkpt>
      <trkpt lat="42.6375" lon="-70.59389">
        <ele>0</ele>
        <time>2026-03-29T19:00:15.709Z</time>
      </trkpt>
      <trkpt lat="42.63848" lon="-70.59336">
        <ele>0</ele>
        <time>2026-03-29T19:00:16.709Z</time>
      </trkpt>
      <trkpt lat="42.64002" lon="-70.59559">
        <ele>0</ele>
        <time>2026-03-29T19:00:17.709Z</time>
      </trkpt>
      <trkpt lat="42.6426" lon="-70.59648">
        <ele>0</ele>
        <time>2026-03-29T19:00:18.709Z</time>
      </trkpt>
      <trkpt lat="42.64379" lon="-70.59591">
        <ele>0</ele>
        <time>2026-03-29T19:00:19.709Z</time>
      </trkpt>
      <trkpt lat="42.64573" lon="-70.59403">
        <ele>0</ele>
        <time>2026-03-29T19:00:20.709Z</time>
      </trkpt>
      <trkpt lat="42.64842" lon="-70.59277">
        <ele>0</ele>
        <time>2026-03-29T19:00:21.709Z</time>
      </trkpt>
      <trkpt lat="42.64799" lon="-70.59872">
        <ele>0</ele>
        <time>2026-03-29T19:00:22.709Z</time>
      </trkpt>
      <trkpt lat="42.65017" lon="-70.59912">
        <ele>0</ele>
        <time>2026-03-29T19:00:23.709Z</time>
      </trkpt>
      <trkpt lat="42.65278" lon="-70.601">
        <ele>0</ele>
        <time>2026-03-29T19:00:24.709Z</time>
      </trkpt>
      <trkpt lat="42.65391" lon="-70.60006">
        <ele>0</ele>
        <time>2026-03-29T19:00:25.709Z</time>
      </trkpt>
      <trkpt lat="42.65396" lon="-70.59814">
        <ele>0</ele>
        <time>2026-03-29T19:00:26.709Z</time>
      </trkpt>
      <trkpt lat="42.65587" lon="-70.59586">
        <ele>0</ele>
        <time>2026-03-29T19:00:27.709Z</time>
      </trkpt>
      <trkpt lat="42.65698" lon="-70.59599">
        <ele>0</ele>
        <time>2026-03-29T19:00:28.709Z</time>
      </trkpt>
      <trkpt lat="42.65734" lon="-70.59729">
        <ele>0</ele>
        <time>2026-03-29T19:00:29.709Z</time>
      </trkpt>
      <trkpt lat="42.65896" lon="-70.59851">
        <ele>0</ele>
        <time>2026-03-29T19:00:30.709Z</time>
      </trkpt>
      <trkpt lat="42.65915" lon="-70.60051">
        <ele>0</ele>
        <time>2026-03-29T19:00:31.709Z</time>
      </trkpt>
      <trkpt lat="42.65868" lon="-70.60168">
        <ele>0</ele>
        <time>2026-03-29T19:00:32.709Z</time>
      </trkpt>
      <trkpt lat="42.65728" lon="-70.60316">
        <ele>0</ele>
        <time>2026-03-29T19:00:33.709Z</time>
      </trkpt>
      <trkpt lat="42.65811" lon="-70.60477">
        <ele>0</ele>
        <time>2026-03-29T19:00:34.709Z</time>
      </trkpt>
      <trkpt lat="42.65802" lon="-70.60813">
        <ele>0</ele>
        <time>2026-03-29T19:00:35.709Z</time>
      </trkpt>
      <trkpt lat="42.65877" lon="-70.60976">
        <ele>0</ele>
        <time>2026-03-29T19:00:36.709Z</time>
      </trkpt>
      <trkpt lat="42.65823" lon="-70.61099">
        <ele>0</ele>
        <time>2026-03-29T19:00:37.709Z</time>
      </trkpt>
      <trkpt lat="42.65903" lon="-70.6122">
        <ele>0</ele>
        <time>2026-03-29T19:00:38.709Z</time>
      </trkpt>
      <trkpt lat="42.65727" lon="-70.61502">
        <ele>0</ele>
        <time>2026-03-29T19:00:39.709Z</time>
      </trkpt>
      <trkpt lat="42.65514" lon="-70.61207">
        <ele>0</ele>
        <time>2026-03-29T19:00:40.709Z</time>
      </trkpt>
      <trkpt lat="42.6548" lon="-70.60786">
        <ele>0</ele>
        <time>2026-03-29T19:00:41.709Z</time>
      </trkpt>
      <trkpt lat="42.65647" lon="-70.6069">
        <ele>0</ele>
        <time>2026-03-29T19:00:42.709Z</time>
      </trkpt>
      <trkpt lat="42.65695" lon="-70.60813">
        <ele>0</ele>
        <time>2026-03-29T19:00:43.709Z</time>
      </trkpt>
      <trkpt lat="42.65802" lon="-70.60709">
        <ele>0</ele>
        <time>2026-03-29T19:00:44.709Z</time>
      </trkpt>
      <trkpt lat="42.65817" lon="-70.60508">
        <ele>0</ele>
        <time>2026-03-29T19:00:45.709Z</time>
      </trkpt>
      <trkpt lat="42.65728" lon="-70.60316">
        <ele>0</ele>
        <time>2026-03-29T19:00:46.709Z</time>
      </trkpt>
      <trkpt lat="42.65873" lon="-70.60159">
        <ele>0</ele>
        <time>2026-03-29T19:00:47.709Z</time>
      </trkpt>
      <trkpt lat="42.65924" lon="-70.59962">
        <ele>0</ele>
        <time>2026-03-29T19:00:48.709Z</time>
      </trkpt>
      <trkpt lat="42.65876" lon="-70.59817">
        <ele>0</ele>
        <time>2026-03-29T19:00:49.709Z</time>
      </trkpt>
      <trkpt lat="42.65734" lon="-70.59729">
        <ele>0</ele>
        <time>2026-03-29T19:00:50.709Z</time>
      </trkpt>
      <trkpt lat="42.65699" lon="-70.59602">
        <ele>0</ele>
        <time>2026-03-29T19:00:51.709Z</time>
      </trkpt>
      <trkpt lat="42.65587" lon="-70.59586">
        <ele>0</ele>
        <time>2026-03-29T19:00:52.709Z</time>
      </trkpt>
      <trkpt lat="42.65494" lon="-70.59667">
        <ele>0</ele>
        <time>2026-03-29T19:00:53.709Z</time>
      </trkpt>
      <trkpt lat="42.65384" lon="-70.59845">
        <ele>0</ele>
        <time>2026-03-29T19:00:54.709Z</time>
      </trkpt>
      <trkpt lat="42.65391" lon="-70.60006">
        <ele>0</ele>
        <time>2026-03-29T19:00:55.709Z</time>
      </trkpt>
      <trkpt lat="42.65278" lon="-70.601">
        <ele>0</ele>
        <time>2026-03-29T19:00:56.709Z</time>
      </trkpt>
      <trkpt lat="42.65017" lon="-70.59912">
        <ele>0</ele>
        <time>2026-03-29T19:00:57.709Z</time>
      </trkpt>
      <trkpt lat="42.64799" lon="-70.59872">
        <ele>0</ele>
        <time>2026-03-29T19:00:58.709Z</time>
      </trkpt>
      <trkpt lat="42.64842" lon="-70.59277">
        <ele>0</ele>
        <time>2026-03-29T19:00:59.709Z</time>
      </trkpt>
      <trkpt lat="42.64573" lon="-70.59403">
        <ele>0</ele>
        <time>2026-03-29T19:01:00.709Z</time>
      </trkpt>
      <trkpt lat="42.64379" lon="-70.59591">
        <ele>0</ele>
        <time>2026-03-29T19:01:01.709Z</time>
      </trkpt>
      <trkpt lat="42.6426" lon="-70.59648">
        <ele>0</ele>
        <time>2026-03-29T19:01:02.709Z</time>
      </trkpt>
      <trkpt lat="42.64002" lon="-70.59559">
        <ele>0</ele>
        <time>2026-03-29T19:01:03.709Z</time>
      </trkpt>
      <trkpt lat="42.63848" lon="-70.59336">
        <ele>0</ele>
        <time>2026-03-29T19:01:04.709Z</time>
      </trkpt>
      <trkpt lat="42.6375" lon="-70.59389">
        <ele>0</ele>
        <time>2026-03-29T19:01:05.709Z</time>
      </trkpt>
      <trkpt lat="42.63586" lon="-70.59586">
        <ele>0</ele>
        <time>2026-03-29T19:01:06.709Z</time>
      </trkpt>
      <trkpt lat="42.63612" lon="-70.59985">
        <ele>0</ele>
        <time>2026-03-29T19:01:07.709Z</time>
      </trkpt>
      <trkpt lat="42.63563" lon="-70.60309">
        <ele>0</ele>
        <time>2026-03-29T19:01:08.709Z</time>
      </trkpt>
      <trkpt lat="42.63616" lon="-70.60351">
        <ele>0</ele>
        <time>2026-03-29T19:01:09.709Z</time>
      </trkpt>
      <trkpt lat="42.63723" lon="-70.60289">
        <ele>0</ele>
        <time>2026-03-29T19:01:10.709Z</time>
      </trkpt>
      <trkpt lat="42.63995" lon="-70.60021">
        <ele>0</ele>
        <time>2026-03-29T19:01:11.709Z</time>
      </trkpt>
      <trkpt lat="42.64095" lon="-70.6003">
        <ele>0</ele>
        <time>2026-03-29T19:01:12.709Z</time>
      </trkpt>
      <trkpt lat="42.64106" lon="-70.60072">
        <ele>0</ele>
        <time>2026-03-29T19:01:13.709Z</time>
      </trkpt>
      <trkpt lat="42.64018" lon="-70.60172">
        <ele>0</ele>
        <time>2026-03-29T19:01:14.709Z</time>
      </trkpt>
      <trkpt lat="42.63901" lon="-70.60485">
        <ele>0</ele>
        <time>2026-03-29T19:01:15.709Z</time>
      </trkpt>
      <trkpt lat="42.63663" lon="-70.60715">
        <ele>0</ele>
        <time>2026-03-29T19:01:16.709Z</time>
      </trkpt>
      <trkpt lat="42.63545" lon="-70.61086">
        <ele>0</ele>
        <time>2026-03-29T19:01:17.709Z</time>
      </trkpt>
      <trkpt lat="42.63231" lon="-70.61739">
        <ele>0</ele>
        <time>2026-03-29T19:01:18.709Z</time>
      </trkpt>
      <trkpt lat="42.63224" lon="-70.62039">
        <ele>0</ele>
        <time>2026-03-29T19:01:19.709Z</time>
      </trkpt>
      <trkpt lat="42.63185" lon="-70.6216">
        <ele>0</ele>
        <time>2026-03-29T19:01:20.709Z</time>
      </trkpt>
      <trkpt lat="42.63064" lon="-70.62254">
        <ele>0</ele>
        <time>2026-03-29T19:01:21.709Z</time>
      </trkpt>
      <trkpt lat="42.62832" lon="-70.62245">
        <ele>0</ele>
        <time>2026-03-29T19:01:22.709Z</time>
      </trkpt>
      <trkpt lat="42.62711" lon="-70.62308">
        <ele>0</ele>
        <time>2026-03-29T19:01:23.709Z</time>
      </trkpt>
      <trkpt lat="42.62512" lon="-70.62546">
        <ele>0</ele>
        <time>2026-03-29T19:01:24.709Z</time>
      </trkpt>
      <trkpt lat="42.62262" lon="-70.63155">
        <ele>0</ele>
        <time>2026-03-29T19:01:25.709Z</time>
      </trkpt>
      <trkpt lat="42.62135" lon="-70.63206">
        <ele>0</ele>
        <time>2026-03-29T19:01:26.709Z</time>
      </trkpt>
    </trkseg>
  </trk>
</gpx>